<?xml version="1.0" encoding="UTF-8"?>
<kml xmlns="http://www.opengis.net/kml/2.2"><Document>
<name>Appendix C - LHDRS project AOI, Ladera Ranch</name>
<description>Study area for an independent historical land-development research project. Not a property boundary and not a parcel.</description>
<Style id="aoi"><LineStyle><color>ffbe6e34</color><width>3</width></LineStyle><PolyStyle><color>26be6e34</color></PolyStyle></Style>
<Placemark><name>AOI 1</name><styleUrl>#aoi</styleUrl><Polygon><outerBoundaryIs><LinearRing><coordinates>-117.659017,33.556050,0 -117.659008,33.552628,0 -117.659012,33.550968,0 -117.659009,33.548481,0 -117.658998,33.539651,0 -117.658993,33.534685,0 -117.658992,33.533833,0 -117.657418,33.532865,0 -117.657221,33.532744,0 -117.657054,33.532641,0 -117.656786,33.532477,0 -117.656711,33.532431,0 -117.656203,33.532119,0 -117.655763,33.531850,0 -117.655322,33.531578,0 -117.654227,33.530905,0 -117.654179,33.530877,0 -117.653500,33.530458,0 -117.653475,33.530443,0 -117.653318,33.530347,0 -117.653235,33.530442,0 -117.653004,33.530648,0 -117.652611,33.530873,0 -117.652329,33.530798,0 -117.652142,33.530749,0 -117.652042,33.530627,0 -117.651809,33.530342,0 -117.651634,33.530189,0 -117.651506,33.530077,0 -117.651216,33.529828,0 -117.651193,33.529808,0 -117.650888,33.529617,0 -117.650573,33.529420,0 -117.650818,33.529104,0 -117.651095,33.529085,0 -117.651252,33.529077,0 -117.651030,33.528941,0 -117.650857,33.528834,0 -117.650778,33.528786,0 -117.650512,33.528622,0 -117.650233,33.528450,0 -117.649935,33.528267,0 -117.649619,33.528073,0 -117.649277,33.527863,0 -117.648901,33.527632,0 -117.648602,33.527448,0 -117.648356,33.527297,0 -117.648134,33.527161,0 -117.647594,33.526791,0 -117.647361,33.527071,0 -117.647348,33.527302,0 -117.647420,33.527605,0 -117.647464,33.527687,0 -117.647551,33.527852,0 -117.647505,33.528061,0 -117.647338,33.528148,0 -117.647295,33.528171,0 -117.647254,33.528281,0 -117.647230,33.528345,0 -117.646143,33.527796,0 -117.643112,33.529159,0 -117.642627,33.530034,0 -117.640263,33.529371,0 -117.639899,33.529277,0 -117.639698,33.529239,0 -117.639173,33.529116,0 -117.638257,33.528533,0 -117.638057,33.528405,0 -117.637028,33.527748,0 -117.636546,33.527472,0 -117.636143,33.527262,0 -117.635026,33.527228,0 -117.630888,33.528788,0 -117.630115,33.530392,0 -117.629908,33.530823,0 -117.628924,33.530953,0 -117.627254,33.531175,0 -117.626541,33.531982,0 -117.624735,33.534026,0 -117.624136,33.534704,0 -117.624163,33.534754,0 -117.624369,33.535136,0 -117.624765,33.535943,0 -117.625255,33.536865,0 -117.625582,33.537557,0 -117.626104,33.538558,0 -117.626888,33.540300,0 -117.626913,33.540355,0 -117.626938,33.540409,0 -117.627609,33.541740,0 -117.627853,33.542259,0 -117.628166,33.542912,0 -117.628666,33.544033,0 -117.628906,33.544540,0 -117.629067,33.544943,0 -117.629161,33.545260,0 -117.629182,33.545331,0 -117.629009,33.545381,0 -117.629083,33.545593,0 -117.629282,33.546312,0 -117.629415,33.547518,0 -117.629453,33.548358,0 -117.629454,33.548551,0 -117.629467,33.549819,0 -117.629512,33.551482,0 -117.629528,33.551566,0 -117.629533,33.551592,0 -117.629539,33.551664,0 -117.629542,33.551691,0 -117.629544,33.551716,0 -117.627337,33.551882,0 -117.626282,33.553998,0 -117.624817,33.554957,0 -117.626095,33.555959,0 -117.625677,33.556746,0 -117.625602,33.558651,0 -117.626941,33.558869,0 -117.627528,33.559781,0 -117.627423,33.560734,0 -117.626402,33.561374,0 -117.626256,33.562738,0 -117.625900,33.562945,0 -117.625834,33.563076,0 -117.625449,33.565301,0 -117.626251,33.565222,0 -117.626333,33.565974,0 -117.626701,33.568843,0 -117.629401,33.568148,0 -117.629433,33.568211,0 -117.629700,33.568642,0 -117.629959,33.568989,0 -117.630219,33.569321,0 -117.630821,33.569870,0 -117.631744,33.570683,0 -117.631790,33.570721,0 -117.632187,33.571129,0 -117.632462,33.571499,0 -117.632683,33.571812,0 -117.632889,33.572208,0 -117.633057,33.572632,0 -117.633202,33.573071,0 -117.633291,33.573575,0 -117.633308,33.573990,0 -117.633270,33.574490,0 -117.633270,33.574582,0 -117.633247,33.574661,0 -117.633159,33.575009,0 -117.633365,33.575072,0 -117.634088,33.575293,0 -117.634775,33.575504,0 -117.636149,33.575443,0 -117.636415,33.575270,0 -117.636665,33.575197,0 -117.636840,33.575164,0 -117.636965,33.575113,0 -117.638543,33.574461,0 -117.638631,33.574447,0 -117.638689,33.574379,0 -117.638702,33.574255,0 -117.638690,33.574172,0 -117.638706,33.574087,0 -117.638788,33.573971,0 -117.638904,33.573841,0 -117.639013,33.573736,0 -117.639113,33.573647,0 -117.639176,33.573544,0 -117.639299,33.573399,0 -117.639499,33.573324,0 -117.639737,33.573333,0 -117.639925,33.573370,0 -117.640031,33.573356,0 -117.640185,33.573327,0 -117.640348,33.573277,0 -117.640446,33.573234,0 -117.640601,33.573156,0 -117.640717,33.573097,0 -117.640798,33.573070,0 -117.640926,33.573002,0 -117.641083,33.572985,0 -117.641206,33.572949,0 -117.641317,33.572873,0 -117.641455,33.572761,0 -117.641540,33.572697,0 -117.641624,33.572601,0 -117.641648,33.572506,0 -117.641670,33.572398,0 -117.641636,33.572277,0 -117.641626,33.572218,0 -117.641613,33.572117,0 -117.641593,33.572048,0 -117.641585,33.571965,0 -117.641610,33.571899,0 -117.641647,33.571795,0 -117.641639,33.571711,0 -117.641612,33.571643,0 -117.641612,33.571589,0 -117.641658,33.571543,0 -117.641718,33.571495,0 -117.641801,33.571449,0 -117.641884,33.571403,0 -117.641934,33.571320,0 -117.641973,33.571143,0 -117.641988,33.570988,0 -117.642040,33.570807,0 -117.642150,33.570543,0 -117.642217,33.570336,0 -117.642265,33.570138,0 -117.642301,33.569925,0 -117.642359,33.569871,0 -117.642501,33.569771,0 -117.642650,33.569724,0 -117.642893,33.569672,0 -117.643129,33.569849,0 -117.643305,33.569907,0 -117.643472,33.569933,0 -117.643628,33.569909,0 -117.643781,33.569860,0 -117.644179,33.569749,0 -117.644449,33.569685,0 -117.644613,33.569642,0 -117.644826,33.569613,0 -117.645054,33.569612,0 -117.645244,33.569661,0 -117.645579,33.569803,0 -117.645715,33.569868,0 -117.645908,33.569684,0 -117.646416,33.569041,0 -117.646788,33.568397,0 -117.647398,33.567618,0 -117.647736,33.567009,0 -117.648651,33.566399,0 -117.648854,33.565959,0 -117.649226,33.565282,0 -117.649938,33.564232,0 -117.651021,33.563724,0 -117.652524,33.562911,0 -117.652662,33.562717,0 -117.653435,33.562760,0 -117.653682,33.562808,0 -117.653830,33.562851,0 -117.653918,33.562852,0 -117.654184,33.562855,0 -117.654273,33.562856,0 -117.654416,33.562857,0 -117.654490,33.562858,0 -117.654543,33.562639,0 -117.654650,33.562040,0 -117.654740,33.561498,0 -117.654941,33.560695,0 -117.656553,33.558859,0 -117.656660,33.558734,0 -117.659017,33.556050,0</coordinates></LinearRing></outerBoundaryIs></Polygon></Placemark>
</Document></kml>