{"type": "FeatureCollection", "features": [{"type": "Feature", "properties": {"frame": "1929", "cells": 13, "areaHa": 3.0, "medianRowSpacingM": 6.8, "statementClass": "documented_presence_interpreted_extent", "provenanceGrade": "A2", "note": "Periodic planted-row texture; extent is cell-resolution"}, "geometry": {"type": "Polygon", "coordinates": [[[-117.67896945945945, 33.53016454054054], [-117.67741854054054, 33.53016454054054], [-117.67741854054054, 33.534234459459455], [-117.67896945945945, 33.534234459459455], [-117.67896945945945, 33.53016454054054]]]}}, {"type": "Feature", "properties": {"frame": "1929", "cells": 84, "areaHa": 19.4, "medianRowSpacingM": 7.5, "statementClass": "documented_presence_interpreted_extent", "provenanceGrade": "A2", "note": "Periodic planted-row texture; extent is cell-resolution"}, "geometry": {"type": "Polygon", "coordinates": [[[-117.67742145945945, 33.52129554054054], [-117.67174254054055, 33.52129554054054], [-117.67174254054055, 33.53068345945945], [-117.67742145945945, 33.53068345945945], [-117.67742145945945, 33.52129554054054]]]}}, {"type": "Feature", "properties": {"frame": "1929", "cells": 10, "areaHa": 2.3, "medianRowSpacingM": 6.8, "statementClass": "documented_presence_interpreted_extent", "provenanceGrade": "A2", "note": "Periodic planted-row texture; extent is cell-resolution"}, "geometry": {"type": "Polygon", "coordinates": [[[-117.66864945945946, 33.527060540540546], [-117.66761454054054, 33.527060540540546], [-117.66761454054054, 33.530240459459456], [-117.66864945945946, 33.530240459459456], [-117.66864945945946, 33.527060540540546]]]}}, {"type": "Feature", "properties": {"frame": "1929", "cells": 71, "areaHa": 16.4, "medianRowSpacingM": 6.8, "statementClass": "documented_presence_interpreted_extent", "provenanceGrade": "A2", "note": "Periodic planted-row texture; extent is cell-resolution"}, "geometry": {"type": "Polygon", "coordinates": [[[-117.66968145945945, 33.520852540540545], [-117.66451854054054, 33.520852540540545], [-117.66451854054054, 33.52536245945946], [-117.66968145945945, 33.52536245945946], [-117.66968145945945, 33.520852540540545]]]}}, {"type": "Feature", "properties": {"frame": "1929", "cells": 4, "areaHa": 0.9, "medianRowSpacingM": 7.5, "statementClass": "documented_presence_interpreted_extent", "provenanceGrade": "A2", "note": "Periodic planted-row texture; extent is cell-resolution"}, "geometry": {"type": "Polygon", "coordinates": [[[-117.67122945945945, 33.52262654054054], [-117.66967854054054, 33.52262654054054], [-117.66967854054054, 33.523588459459454], [-117.67122945945945, 33.523588459459454], [-117.67122945945945, 33.52262654054054]]]}}, {"type": "Feature", "properties": {"frame": "1929", "cells": 6, "areaHa": 1.4, "medianRowSpacingM": 8.0, "statementClass": "documented_presence_interpreted_extent", "provenanceGrade": "A2", "note": "Periodic planted-row texture; extent is cell-resolution"}, "geometry": {"type": "Polygon", "coordinates": [[[-117.67432545945945, 33.54524554054054], [-117.67380654054054, 33.54524554054054], [-117.67380654054054, 33.54798445945946], [-117.67432545945945, 33.54798445945946], [-117.67432545945945, 33.54524554054054]]]}}, {"type": "Feature", "properties": {"frame": "1929", "cells": 9, "areaHa": 2.1, "medianRowSpacingM": 6.8, "statementClass": "documented_presence_interpreted_extent", "provenanceGrade": "A2", "note": "Periodic planted-row texture; extent is cell-resolution"}, "geometry": {"type": "Polygon", "coordinates": [[[-117.67896945945945, 33.53415954054054], [-117.67793454054055, 33.53415954054054], [-117.67793454054055, 33.537338459459455], [-117.67896945945945, 33.537338459459455], [-117.67896945945945, 33.53415954054054]]]}}, {"type": "Feature", "properties": {"frame": "1929", "cells": 7, "areaHa": 1.6, "medianRowSpacingM": 7.8, "statementClass": "documented_presence_interpreted_extent", "provenanceGrade": "A2", "note": "Periodic planted-row texture; extent is cell-resolution"}, "geometry": {"type": "Polygon", "coordinates": [[[-117.67432545945945, 33.55234354054054], [-117.67380654054054, 33.55234354054054], [-117.67380654054054, 33.55552345945946], [-117.67432545945945, 33.55552345945946], [-117.67432545945945, 33.55234354054054]]]}}, {"type": "Feature", "properties": {"frame": "1929", "cells": 9, "areaHa": 2.1, "medianRowSpacingM": 8.0, "statementClass": "documented_presence_interpreted_extent", "provenanceGrade": "A2", "note": "Periodic planted-row texture; extent is cell-resolution"}, "geometry": {"type": "Polygon", "coordinates": [[[-117.67432545945945, 33.547909540540545], [-117.67380654054054, 33.547909540540545], [-117.67380654054054, 33.551975459459456], [-117.67432545945945, 33.551975459459456], [-117.67432545945945, 33.547909540540545]]]}}, {"type": "Feature", "properties": {"frame": "1938", "cells": 14, "areaHa": 3.2, "medianRowSpacingM": 6.8, "statementClass": "documented_presence_interpreted_extent", "provenanceGrade": "A2", "note": "Periodic planted-row texture; extent is cell-resolution"}, "geometry": {"type": "Polygon", "coordinates": [[[-117.67896945945945, 33.53016454054054], [-117.67690254054054, 33.53016454054054], [-117.67690254054054, 33.534234459459455], [-117.67896945945945, 33.534234459459455], [-117.67896945945945, 33.53016454054054]]]}}, {"type": "Feature", "properties": {"frame": "1938", "cells": 29, "areaHa": 6.7, "medianRowSpacingM": 7.5, "statementClass": "documented_presence_interpreted_extent", "provenanceGrade": "A2", "note": "Periodic planted-row texture; extent is cell-resolution"}, "geometry": {"type": "Polygon", "coordinates": [[[-117.67484145945946, 33.528834540540544], [-117.67071054054054, 33.528834540540544], [-117.67071054054054, 33.533787459459454], [-117.67484145945946, 33.533787459459454], [-117.67484145945946, 33.528834540540544]]]}}, {"type": "Feature", "properties": {"frame": "1938", "cells": 42, "areaHa": 9.7, "medianRowSpacingM": 7.1, "statementClass": "documented_presence_interpreted_extent", "provenanceGrade": "A2", "note": "Periodic planted-row texture; extent is cell-resolution"}, "geometry": {"type": "Polygon", "coordinates": [[[-117.67122945945945, 33.531051540540545], [-117.66709854054054, 33.531051540540545], [-117.66709854054054, 33.534234459459455], [-117.67122945945945, 33.534234459459455], [-117.67122945945945, 33.531051540540545]]]}}, {"type": "Feature", "properties": {"frame": "1938", "cells": 3, "areaHa": 0.7, "medianRowSpacingM": 7.5, "statementClass": "documented_presence_interpreted_extent", "provenanceGrade": "A2", "note": "Periodic planted-row texture; extent is cell-resolution"}, "geometry": {"type": "Polygon", "coordinates": [[[-117.67380945945946, 33.53060854054054], [-117.67225854054054, 33.53060854054054], [-117.67225854054054, 33.532014459459454], [-117.67380945945946, 33.532014459459454], [-117.67380945945946, 33.53060854054054]]]}}, {"type": "Feature", "properties": {"frame": "1938", "cells": 116, "areaHa": 26.7, "medianRowSpacingM": 6.6, "statementClass": "documented_presence_interpreted_extent", "provenanceGrade": "A2", "note": "Periodic planted-row texture; extent is cell-resolution"}, "geometry": {"type": "Polygon", "coordinates": [[[-117.67845345945946, 33.51996554054055], [-117.66967854054054, 33.51996554054055], [-117.66967854054054, 33.53068345945945], [-117.67845345945946, 33.53068345945945], [-117.67845345945946, 33.51996554054055]]]}}, {"type": "Feature", "properties": {"frame": "1938", "cells": 6, "areaHa": 1.4, "medianRowSpacingM": 5.9, "statementClass": "documented_presence_interpreted_extent", "provenanceGrade": "A2", "note": "Periodic planted-row texture; extent is cell-resolution"}, "geometry": {"type": "Polygon", "coordinates": [[[-117.66555345945946, 33.528834540540544], [-117.66348254054054, 33.528834540540544], [-117.66348254054054, 33.530240459459456], [-117.66555345945946, 33.530240459459456], [-117.66555345945946, 33.528834540540544]]]}}, {"type": "Feature", "properties": {"frame": "1938", "cells": 10, "areaHa": 2.3, "medianRowSpacingM": 6.0, "statementClass": "documented_presence_interpreted_extent", "provenanceGrade": "A2", "note": "Periodic planted-row texture; extent is cell-resolution"}, "geometry": {"type": "Polygon", "coordinates": [[[-117.67896945945945, 33.52661754054054], [-117.67690254054054, 33.52661754054054], [-117.67690254054054, 33.529796459459455], [-117.67896945945945, 33.529796459459455], [-117.67896945945945, 33.52661754054054]]]}}, {"type": "Feature", "properties": {"frame": "1938", "cells": 10, "areaHa": 2.3, "medianRowSpacingM": 5.9, "statementClass": "documented_presence_interpreted_extent", "provenanceGrade": "A2", "note": "Periodic planted-row texture; extent is cell-resolution"}, "geometry": {"type": "Polygon", "coordinates": [[[-117.66864945945946, 33.528834540540544], [-117.66606654054054, 33.528834540540544], [-117.66606654054054, 33.529796459459455], [-117.66864945945946, 33.529796459459455], [-117.66864945945946, 33.528834540540544]]]}}, {"type": "Feature", "properties": {"frame": "1938", "cells": 10, "areaHa": 2.3, "medianRowSpacingM": 5.9, "statementClass": "documented_presence_interpreted_extent", "provenanceGrade": "A2", "note": "Periodic planted-row texture; extent is cell-resolution"}, "geometry": {"type": "Polygon", "coordinates": [[[-117.66916545945946, 33.52617354054054], [-117.66658254054055, 33.52617354054054], [-117.66658254054055, 33.52846645945946], [-117.66916545945946, 33.52846645945946], [-117.66916545945946, 33.52617354054054]]]}}, {"type": "Feature", "properties": {"frame": "1938", "cells": 4, "areaHa": 0.9, "medianRowSpacingM": 5.8, "statementClass": "documented_presence_interpreted_extent", "provenanceGrade": "A2", "note": "Periodic planted-row texture; extent is cell-resolution"}, "geometry": {"type": "Polygon", "coordinates": [[[-117.66658545945945, 33.52617354054054], [-117.66503454054055, 33.52617354054054], [-117.66503454054055, 33.52757945945946], [-117.66658545945945, 33.52757945945946], [-117.66658545945945, 33.52617354054054]]]}}, {"type": "Feature", "properties": {"frame": "1938", "cells": 3, "areaHa": 0.7, "medianRowSpacingM": 6.6, "statementClass": "documented_presence_interpreted_extent", "provenanceGrade": "A2", "note": "Periodic planted-row texture; extent is cell-resolution"}, "geometry": {"type": "Polygon", "coordinates": [[[-117.67122945945945, 33.52617354054054], [-117.67019454054055, 33.52617354054054], [-117.67019454054055, 33.527136459459456], [-117.67122945945945, 33.527136459459456], [-117.67122945945945, 33.52617354054054]]]}}, {"type": "Feature", "properties": {"frame": "1938", "cells": 27, "areaHa": 6.2, "medianRowSpacingM": 6.6, "statementClass": "documented_presence_interpreted_extent", "provenanceGrade": "A2", "note": "Periodic planted-row texture; extent is cell-resolution"}, "geometry": {"type": "Polygon", "coordinates": [[[-117.67277745945945, 33.52306954054054], [-117.66916254054054, 33.52306954054054], [-117.66916254054054, 33.525805459459455], [-117.67277745945945, 33.525805459459455], [-117.67277745945945, 33.52306954054054]]]}}, {"type": "Feature", "properties": {"frame": "1938", "cells": 62, "areaHa": 14.3, "medianRowSpacingM": 6.0, "statementClass": "documented_presence_interpreted_extent", "provenanceGrade": "A2", "note": "Periodic planted-row texture; extent is cell-resolution"}, "geometry": {"type": "Polygon", "coordinates": [[[-117.66916545945946, 33.51996554054055], [-117.66400254054054, 33.51996554054055], [-117.66400254054054, 33.525805459459455], [-117.66916545945946, 33.525805459459455], [-117.66916545945946, 33.51996554054055]]]}}, {"type": "Feature", "properties": {"frame": "1938", "cells": 24, "areaHa": 5.5, "medianRowSpacingM": 6.0, "statementClass": "documented_presence_interpreted_extent", "provenanceGrade": "A2", "note": "Periodic planted-row texture; extent is cell-resolution"}, "geometry": {"type": "Polygon", "coordinates": [[[-117.66916545945946, 33.520852540540545], [-117.66555054054054, 33.520852540540545], [-117.66555054054054, 33.52536245945946], [-117.66916545945946, 33.52536245945946], [-117.66916545945946, 33.520852540540545]]]}}, {"type": "Feature", "properties": {"frame": "1938", "cells": 4, "areaHa": 0.9, "medianRowSpacingM": 6.6, "statementClass": "documented_presence_interpreted_extent", "provenanceGrade": "A2", "note": "Periodic planted-row texture; extent is cell-resolution"}, "geometry": {"type": "Polygon", "coordinates": [[[-117.67071345945946, 33.51996554054055], [-117.66967854054054, 33.51996554054055], [-117.66967854054054, 33.52137145945946], [-117.67071345945946, 33.52137145945946], [-117.67071345945946, 33.51996554054055]]]}}, {"type": "Feature", "properties": {"frame": "1938", "cells": 7, "areaHa": 1.6, "medianRowSpacingM": 5.3, "statementClass": "documented_presence_interpreted_extent", "provenanceGrade": "A2", "note": "Periodic planted-row texture; extent is cell-resolution"}, "geometry": {"type": "Polygon", "coordinates": [[[-117.63974545945946, 33.52040954054054], [-117.63767854054055, 33.52040954054054], [-117.63767854054055, 33.52225845945946], [-117.63974545945946, 33.52225845945946], [-117.63974545945946, 33.52040954054054]]]}}, {"type": "Feature", "properties": {"frame": "1938", "cells": 3, "areaHa": 0.7, "medianRowSpacingM": 7.5, "statementClass": "documented_presence_interpreted_extent", "provenanceGrade": "A2", "note": "Periodic planted-row texture; extent is cell-resolution"}, "geometry": {"type": "Polygon", "coordinates": [[[-117.67793745945946, 33.540367540540544], [-117.67690254054054, 33.540367540540544], [-117.67690254054054, 33.541773459459456], [-117.67793745945946, 33.541773459459456], [-117.67793745945946, 33.540367540540544]]]}}, {"type": "Feature", "properties": {"frame": "1938", "cells": 16, "areaHa": 3.7, "medianRowSpacingM": 6.6, "statementClass": "documented_presence_interpreted_extent", "provenanceGrade": "A2", "note": "Periodic planted-row texture; extent is cell-resolution"}, "geometry": {"type": "Polygon", "coordinates": [[[-117.67174545945946, 33.53726354054054], [-117.66916254054054, 33.53726354054054], [-117.66916254054054, 33.54088645945946], [-117.67174545945946, 33.54088645945946], [-117.67174545945946, 33.53726354054054]]]}}, {"type": "Feature", "properties": {"frame": "1938", "cells": 76, "areaHa": 17.5, "medianRowSpacingM": 7.1, "statementClass": "documented_presence_interpreted_extent", "provenanceGrade": "A2", "note": "Periodic planted-row texture; extent is cell-resolution"}, "geometry": {"type": "Polygon", "coordinates": [[[-117.67122945945945, 33.53415954054054], [-117.66503454054055, 33.53415954054054], [-117.66503454054055, 33.53955545945946], [-117.67122945945945, 33.53955545945946], [-117.67122945945945, 33.53415954054054]]]}}, {"type": "Feature", "properties": {"frame": "1938", "cells": 4, "areaHa": 0.9, "medianRowSpacingM": 5.6, "statementClass": "documented_presence_interpreted_extent", "provenanceGrade": "A2", "note": "Periodic planted-row texture; extent is cell-resolution"}, "geometry": {"type": "Polygon", "coordinates": [[[-117.67329345945946, 33.53681954054054], [-117.67225854054054, 33.53681954054054], [-117.67225854054054, 33.538225459459454], [-117.67329345945946, 33.538225459459454], [-117.67329345945946, 33.53681954054054]]]}}, {"type": "Feature", "properties": {"frame": "1938", "cells": 10, "areaHa": 2.3, "medianRowSpacingM": 6.9, "statementClass": "documented_presence_interpreted_extent", "provenanceGrade": "A2", "note": "Periodic planted-row texture; extent is cell-resolution"}, "geometry": {"type": "Polygon", "coordinates": [[[-117.67896945945945, 33.53415954054054], [-117.67793454054055, 33.53415954054054], [-117.67793454054055, 33.537338459459455], [-117.67896945945945, 33.537338459459455], [-117.67896945945945, 33.53415954054054]]]}}, {"type": "Feature", "properties": {"frame": "1938", "cells": 4, "areaHa": 0.9, "medianRowSpacingM": 5.3, "statementClass": "documented_presence_interpreted_extent", "provenanceGrade": "A2", "note": "Periodic planted-row texture; extent is cell-resolution"}, "geometry": {"type": "Polygon", "coordinates": [[[-117.67380945945946, 33.53415954054054], [-117.67277454054054, 33.53415954054054], [-117.67277454054054, 33.53556445945946], [-117.67380945945946, 33.53556445945946], [-117.67380945945946, 33.53415954054054]]]}}, {"type": "Feature", "properties": {"frame": "1947", "cells": 20, "areaHa": 4.6, "medianRowSpacingM": 7.5, "statementClass": "documented_presence_interpreted_extent", "provenanceGrade": "A2", "note": "Periodic planted-row texture; extent is cell-resolution"}, "geometry": {"type": "Polygon", "coordinates": [[[-117.65316545945946, 33.51996554054055], [-117.64955054054055, 33.51996554054055], [-117.64955054054055, 33.524032459459455], [-117.65316545945946, 33.524032459459455], [-117.65316545945946, 33.51996554054055]]]}}, {"type": "Feature", "properties": {"frame": "1947", "cells": 7, "areaHa": 1.6, "medianRowSpacingM": 6.0, "statementClass": "documented_presence_interpreted_extent", "provenanceGrade": "A2", "note": "Periodic planted-row texture; extent is cell-resolution"}, "geometry": {"type": "Polygon", "coordinates": [[[-117.64903745945945, 33.52306954054054], [-117.64645054054054, 33.52306954054054], [-117.64645054054054, 33.524032459459455], [-117.64903745945945, 33.524032459459455], [-117.64903745945945, 33.52306954054054]]]}}, {"type": "Feature", "properties": {"frame": "1947", "cells": 4, "areaHa": 0.9, "medianRowSpacingM": 6.9, "statementClass": "documented_presence_interpreted_extent", "provenanceGrade": "A2", "note": "Periodic planted-row texture; extent is cell-resolution"}, "geometry": {"type": "Polygon", "coordinates": [[[-117.65729345945945, 33.51996554054055], [-117.65574254054054, 33.51996554054055], [-117.65574254054054, 33.520928459459455], [-117.65729345945945, 33.520928459459455], [-117.65729345945945, 33.51996554054055]]]}}, {"type": "Feature", "properties": {"frame": "1947", "cells": 4, "areaHa": 0.9, "medianRowSpacingM": 5.4, "statementClass": "documented_presence_interpreted_extent", "provenanceGrade": "A2", "note": "Periodic planted-row texture; extent is cell-resolution"}, "geometry": {"type": "Polygon", "coordinates": [[[-117.63871345945945, 33.52040954054054], [-117.63767854054055, 33.52040954054054], [-117.63767854054055, 33.521814459459456], [-117.63871345945945, 33.521814459459456], [-117.63871345945945, 33.52040954054054]]]}}]}