{
 "type": "FeatureCollection",
 "features": [
  {
   "type": "Feature",
   "geometry": {
    "type": "Point",
    "coordinates": [
     -117.66132,
     33.54394
    ]
   },
   "properties": {
    "lat": 33.54394,
    "lon": -117.66132,
    "area_m2": 24745,
    "elongation": 2.6,
    "in_zone_a": true,
    "length_m": 405.0,
    "layer": "topo1968_water",
    "source": "USGS 7.5' San Juan Capistrano, 1968 ed.",
    "grade": "A1",
    "confidence": "Officially reported",
    "note": "Surface water body as drawn by USGS field survey, 1968"
   }
  },
  {
   "type": "Feature",
   "geometry": {
    "type": "Point",
    "coordinates": [
     -117.67091,
     33.53074
    ]
   },
   "properties": {
    "lat": 33.53074,
    "lon": -117.67091,
    "area_m2": 13367,
    "elongation": 1.5,
    "in_zone_a": false,
    "length_m": 231.0,
    "layer": "topo1968_water",
    "source": "USGS 7.5' San Juan Capistrano, 1968 ed.",
    "grade": "A1",
    "confidence": "Officially reported",
    "note": "Surface water body as drawn by USGS field survey, 1968"
   }
  },
  {
   "type": "Feature",
   "geometry": {
    "type": "Point",
    "coordinates": [
     -117.66061,
     33.54123
    ]
   },
   "properties": {
    "lat": 33.54123,
    "lon": -117.66061,
    "area_m2": 12395,
    "elongation": 1.7,
    "in_zone_a": true,
    "length_m": 258.0,
    "layer": "topo1968_water",
    "source": "USGS 7.5' San Juan Capistrano, 1968 ed.",
    "grade": "A1",
    "confidence": "Officially reported",
    "note": "Surface water body as drawn by USGS field survey, 1968"
   }
  },
  {
   "type": "Feature",
   "geometry": {
    "type": "Point",
    "coordinates": [
     -117.65281,
     33.55857
    ]
   },
   "properties": {
    "lat": 33.55857,
    "lon": -117.65281,
    "area_m2": 9111,
    "elongation": 1.5,
    "in_zone_a": true,
    "length_m": 253.0,
    "layer": "topo1968_water",
    "source": "USGS 7.5' San Juan Capistrano, 1968 ed.",
    "grade": "A1",
    "confidence": "Officially reported",
    "note": "Surface water body as drawn by USGS field survey, 1968"
   }
  },
  {
   "type": "Feature",
   "geometry": {
    "type": "Point",
    "coordinates": [
     -117.67797,
     33.53981
    ]
   },
   "properties": {
    "lat": 33.53981,
    "lon": -117.67797,
    "area_m2": 4855,
    "elongation": 1.1,
    "in_zone_a": false,
    "length_m": 97.0,
    "layer": "topo1968_water",
    "source": "USGS 7.5' San Juan Capistrano, 1968 ed.",
    "grade": "A1",
    "confidence": "Officially reported",
    "note": "Surface water body as drawn by USGS field survey, 1968"
   }
  },
  {
   "type": "Feature",
   "geometry": {
    "type": "Point",
    "coordinates": [
     -117.65992,
     33.54793
    ]
   },
   "properties": {
    "lat": 33.54793,
    "lon": -117.65992,
    "area_m2": 4661,
    "elongation": 1.3,
    "in_zone_a": true,
    "length_m": 99.0,
    "layer": "topo1968_water",
    "source": "USGS 7.5' San Juan Capistrano, 1968 ed.",
    "grade": "A1",
    "confidence": "Officially reported",
    "note": "Surface water body as drawn by USGS field survey, 1968"
   }
  },
  {
   "type": "Feature",
   "geometry": {
    "type": "Point",
    "coordinates": [
     -117.66196,
     33.52599
    ]
   },
   "properties": {
    "lat": 33.52599,
    "lon": -117.66196,
    "area_m2": 3721,
    "elongation": 1.1,
    "in_zone_a": false,
    "length_m": 97.0,
    "layer": "topo1968_water",
    "source": "USGS 7.5' San Juan Capistrano, 1968 ed.",
    "grade": "A1",
    "confidence": "Officially reported",
    "note": "Surface water body as drawn by USGS field survey, 1968"
   }
  },
  {
   "type": "Feature",
   "geometry": {
    "type": "Point",
    "coordinates": [
     -117.67629,
     33.53909
    ]
   },
   "properties": {
    "lat": 33.53909,
    "lon": -117.67629,
    "area_m2": 2891,
    "elongation": 1.5,
    "in_zone_a": false,
    "length_m": 117.0,
    "layer": "topo1968_water",
    "source": "USGS 7.5' San Juan Capistrano, 1968 ed.",
    "grade": "A1",
    "confidence": "Officially reported",
    "note": "Surface water body as drawn by USGS field survey, 1968"
   }
  },
  {
   "type": "Feature",
   "geometry": {
    "type": "Point",
    "coordinates": [
     -117.6352,
     33.52748
    ]
   },
   "properties": {
    "lat": 33.52748,
    "lon": -117.6352,
    "area_m2": 1687,
    "elongation": 1.2,
    "in_zone_a": false,
    "length_m": 66.0,
    "layer": "topo1968_water",
    "source": "USGS 7.5' San Juan Capistrano, 1968 ed.",
    "grade": "A1",
    "confidence": "Officially reported",
    "note": "Surface water body as drawn by USGS field survey, 1968"
   }
  },
  {
   "type": "Feature",
   "geometry": {
    "type": "Point",
    "coordinates": [
     -117.6706,
     33.57219
    ]
   },
   "properties": {
    "lat": 33.57219,
    "lon": -117.6706,
    "area_m2": 1641,
    "elongation": 1.3,
    "in_zone_a": false,
    "length_m": 58.0,
    "layer": "topo1968_water",
    "source": "USGS 7.5' San Juan Capistrano, 1968 ed.",
    "grade": "A1",
    "confidence": "Officially reported",
    "note": "Surface water body as drawn by USGS field survey, 1968"
   }
  },
  {
   "type": "Feature",
   "geometry": {
    "type": "Point",
    "coordinates": [
     -117.65929,
     33.54763
    ]
   },
   "properties": {
    "lat": 33.54763,
    "lon": -117.65929,
    "area_m2": 1307,
    "elongation": 1.2,
    "in_zone_a": true,
    "length_m": 51.0,
    "layer": "topo1968_water",
    "source": "USGS 7.5' San Juan Capistrano, 1968 ed.",
    "grade": "A1",
    "confidence": "Officially reported",
    "note": "Surface water body as drawn by USGS field survey, 1968"
   }
  },
  {
   "type": "Feature",
   "geometry": {
    "type": "Point",
    "coordinates": [
     -117.67298,
     33.56754
    ]
   },
   "properties": {
    "lat": 33.56754,
    "lon": -117.67298,
    "area_m2": 1262,
    "elongation": 3.4,
    "in_zone_a": false,
    "length_m": 147.0,
    "layer": "topo1968_water",
    "source": "USGS 7.5' San Juan Capistrano, 1968 ed.",
    "grade": "A1",
    "confidence": "Officially reported",
    "note": "Surface water body as drawn by USGS field survey, 1968"
   }
  },
  {
   "type": "Feature",
   "geometry": {
    "type": "Point",
    "coordinates": [
     -117.66081,
     33.55057
    ]
   },
   "properties": {
    "lat": 33.55057,
    "lon": -117.66081,
    "area_m2": 882,
    "elongation": 2.3,
    "in_zone_a": true,
    "length_m": 58.0,
    "layer": "topo1968_water",
    "source": "USGS 7.5' San Juan Capistrano, 1968 ed.",
    "grade": "A1",
    "confidence": "Officially reported",
    "note": "Surface water body as drawn by USGS field survey, 1968"
   }
  },
  {
   "type": "Feature",
   "geometry": {
    "type": "Point",
    "coordinates": [
     -117.67566,
     33.53754
    ]
   },
   "properties": {
    "lat": 33.53754,
    "lon": -117.67566,
    "area_m2": 804,
    "elongation": 4.6,
    "in_zone_a": false,
    "length_m": 94.0,
    "layer": "topo1968_water",
    "source": "USGS 7.5' San Juan Capistrano, 1968 ed.",
    "grade": "A1",
    "confidence": "Officially reported",
    "note": "Surface water body as drawn by USGS field survey, 1968"
   }
  },
  {
   "type": "Feature",
   "geometry": {
    "type": "Point",
    "coordinates": [
     -117.67538,
     33.53945
    ]
   },
   "properties": {
    "lat": 33.53945,
    "lon": -117.67538,
    "area_m2": 766,
    "elongation": 5.8,
    "in_zone_a": false,
    "length_m": 117.0,
    "layer": "topo1968_water",
    "source": "USGS 7.5' San Juan Capistrano, 1968 ed.",
    "grade": "A1",
    "confidence": "Officially reported",
    "note": "Surface water body as drawn by USGS field survey, 1968"
   }
  },
  {
   "type": "Feature",
   "geometry": {
    "type": "Point",
    "coordinates": [
     -117.67308,
     33.57449
    ]
   },
   "properties": {
    "lat": 33.57449,
    "lon": -117.67308,
    "area_m2": 746,
    "elongation": 3.7,
    "in_zone_a": false,
    "length_m": 104.0,
    "layer": "topo1968_water",
    "source": "USGS 7.5' San Juan Capistrano, 1968 ed.",
    "grade": "A1",
    "confidence": "Officially reported",
    "note": "Surface water body as drawn by USGS field survey, 1968"
   }
  },
  {
   "type": "Feature",
   "geometry": {
    "type": "Point",
    "coordinates": [
     -117.63687,
     33.55546
    ]
   },
   "properties": {
    "lat": 33.55546,
    "lon": -117.63687,
    "area_m2": 734,
    "elongation": 4.0,
    "in_zone_a": true,
    "length_m": 91.0,
    "layer": "topo1968_water",
    "source": "USGS 7.5' San Juan Capistrano, 1968 ed.",
    "grade": "A1",
    "confidence": "Officially reported",
    "note": "Surface water body as drawn by USGS field survey, 1968"
   }
  },
  {
   "type": "Feature",
   "geometry": {
    "type": "Point",
    "coordinates": [
     -117.67308,
     33.57232
    ]
   },
   "properties": {
    "lat": 33.57232,
    "lon": -117.67308,
    "area_m2": 547,
    "elongation": 1.8,
    "in_zone_a": false,
    "length_m": 51.0,
    "layer": "topo1968_water",
    "source": "USGS 7.5' San Juan Capistrano, 1968 ed.",
    "grade": "A1",
    "confidence": "Officially reported",
    "note": "Surface water body as drawn by USGS field survey, 1968"
   }
  },
  {
   "type": "Feature",
   "geometry": {
    "type": "Point",
    "coordinates": [
     -117.66021,
     33.54593
    ]
   },
   "properties": {
    "lat": 33.54593,
    "lon": -117.66021,
    "area_m2": 547,
    "elongation": 4.4,
    "in_zone_a": true,
    "length_m": 79.0,
    "layer": "topo1968_water",
    "source": "USGS 7.5' San Juan Capistrano, 1968 ed.",
    "grade": "A1",
    "confidence": "Officially reported",
    "note": "Surface water body as drawn by USGS field survey, 1968"
   }
  },
  {
   "type": "Feature",
   "geometry": {
    "type": "Point",
    "coordinates": [
     -117.66905,
     33.56911
    ]
   },
   "properties": {
    "lat": 33.56911,
    "lon": -117.66905,
    "area_m2": 534,
    "elongation": 3.1,
    "in_zone_a": false,
    "length_m": 79.0,
    "layer": "topo1968_water",
    "source": "USGS 7.5' San Juan Capistrano, 1968 ed.",
    "grade": "A1",
    "confidence": "Officially reported",
    "note": "Surface water body as drawn by USGS field survey, 1968"
   }
  },
  {
   "type": "Feature",
   "geometry": {
    "type": "Point",
    "coordinates": [
     -117.67564,
     33.55217
    ]
   },
   "properties": {
    "lat": 33.55217,
    "lon": -117.67564,
    "area_m2": 521,
    "elongation": 5.5,
    "in_zone_a": false,
    "length_m": 84.0,
    "layer": "topo1968_water",
    "source": "USGS 7.5' San Juan Capistrano, 1968 ed.",
    "grade": "A1",
    "confidence": "Officially reported",
    "note": "Surface water body as drawn by USGS field survey, 1968"
   }
  },
  {
   "type": "Feature",
   "geometry": {
    "type": "Point",
    "coordinates": [
     -117.66258,
     33.53792
    ]
   },
   "properties": {
    "lat": 33.53792,
    "lon": -117.66258,
    "area_m2": 515,
    "elongation": 1.5,
    "in_zone_a": false,
    "length_m": 64.0,
    "layer": "topo1968_water",
    "source": "USGS 7.5' San Juan Capistrano, 1968 ed.",
    "grade": "A1",
    "confidence": "Officially reported",
    "note": "Surface water body as drawn by USGS field survey, 1968"
   }
  },
  {
   "type": "Feature",
   "geometry": {
    "type": "Point",
    "coordinates": [
     -117.63615,
     33.5575
    ]
   },
   "properties": {
    "lat": 33.5575,
    "lon": -117.63615,
    "area_m2": 508,
    "elongation": 2.3,
    "in_zone_a": true,
    "length_m": 71.0,
    "layer": "topo1968_water",
    "source": "USGS 7.5' San Juan Capistrano, 1968 ed.",
    "grade": "A1",
    "confidence": "Officially reported",
    "note": "Surface water body as drawn by USGS field survey, 1968"
   }
  },
  {
   "type": "Feature",
   "geometry": {
    "type": "Point",
    "coordinates": [
     -117.67388,
     33.54534
    ]
   },
   "properties": {
    "lat": 33.54534,
    "lon": -117.67388,
    "area_m2": 508,
    "elongation": 5.7,
    "in_zone_a": false,
    "length_m": 86.0,
    "layer": "topo1968_water",
    "source": "USGS 7.5' San Juan Capistrano, 1968 ed.",
    "grade": "A1",
    "confidence": "Officially reported",
    "note": "Surface water body as drawn by USGS field survey, 1968"
   }
  },
  {
   "type": "Feature",
   "geometry": {
    "type": "Point",
    "coordinates": [
     -117.64498,
     33.54833
    ]
   },
   "properties": {
    "lat": 33.54833,
    "lon": -117.64498,
    "area_m2": 495,
    "elongation": 1.5,
    "in_zone_a": true,
    "length_m": 48.0,
    "layer": "topo1968_water",
    "source": "USGS 7.5' San Juan Capistrano, 1968 ed.",
    "grade": "A1",
    "confidence": "Officially reported",
    "note": "Surface water body as drawn by USGS field survey, 1968"
   }
  },
  {
   "type": "Feature",
   "geometry": {
    "type": "Point",
    "coordinates": [
     -117.67316,
     33.57158
    ]
   },
   "properties": {
    "lat": 33.57158,
    "lon": -117.67316,
    "area_m2": 476,
    "elongation": 3.8,
    "in_zone_a": false,
    "length_m": 58.0,
    "layer": "topo1968_water",
    "source": "USGS 7.5' San Juan Capistrano, 1968 ed.",
    "grade": "A1",
    "confidence": "Officially reported",
    "note": "Surface water body as drawn by USGS field survey, 1968"
   }
  },
  {
   "type": "Feature",
   "geometry": {
    "type": "Point",
    "coordinates": [
     -117.63391,
     33.56288
    ]
   },
   "properties": {
    "lat": 33.56288,
    "lon": -117.63391,
    "area_m2": 476,
    "elongation": 2.6,
    "in_zone_a": false,
    "length_m": 53.0,
    "layer": "topo1968_water",
    "source": "USGS 7.5' San Juan Capistrano, 1968 ed.",
    "grade": "A1",
    "confidence": "Officially reported",
    "note": "Surface water body as drawn by USGS field survey, 1968"
   }
  },
  {
   "type": "Feature",
   "geometry": {
    "type": "Point",
    "coordinates": [
     -117.67481,
     33.54328
    ]
   },
   "properties": {
    "lat": 33.54328,
    "lon": -117.67481,
    "area_m2": 476,
    "elongation": 4.8,
    "in_zone_a": false,
    "length_m": 73.0,
    "layer": "topo1968_water",
    "source": "USGS 7.5' San Juan Capistrano, 1968 ed.",
    "grade": "A1",
    "confidence": "Officially reported",
    "note": "Surface water body as drawn by USGS field survey, 1968"
   }
  },
  {
   "type": "Feature",
   "geometry": {
    "type": "Point",
    "coordinates": [
     -117.67611,
     33.5558
    ]
   },
   "properties": {
    "lat": 33.5558,
    "lon": -117.67611,
    "area_m2": 470,
    "elongation": 5.2,
    "in_zone_a": false,
    "length_m": 79.0,
    "layer": "topo1968_water",
    "source": "USGS 7.5' San Juan Capistrano, 1968 ed.",
    "grade": "A1",
    "confidence": "Officially reported",
    "note": "Surface water body as drawn by USGS field survey, 1968"
   }
  },
  {
   "type": "Feature",
   "geometry": {
    "type": "Point",
    "coordinates": [
     -117.67378,
     33.55314
    ]
   },
   "properties": {
    "lat": 33.55314,
    "lon": -117.67378,
    "area_m2": 470,
    "elongation": 1.5,
    "in_zone_a": false,
    "length_m": 41.0,
    "layer": "topo1968_water",
    "source": "USGS 7.5' San Juan Capistrano, 1968 ed.",
    "grade": "A1",
    "confidence": "Officially reported",
    "note": "Surface water body as drawn by USGS field survey, 1968"
   }
  },
  {
   "type": "Feature",
   "geometry": {
    "type": "Point",
    "coordinates": [
     -117.65619,
     33.53482
    ]
   },
   "properties": {
    "lat": 33.53482,
    "lon": -117.65619,
    "area_m2": 418,
    "elongation": 1.2,
    "in_zone_a": true,
    "length_m": 33.0,
    "layer": "topo1968_water",
    "source": "USGS 7.5' San Juan Capistrano, 1968 ed.",
    "grade": "A1",
    "confidence": "Officially reported",
    "note": "Surface water body as drawn by USGS field survey, 1968"
   }
  },
  {
   "type": "Feature",
   "geometry": {
    "type": "Point",
    "coordinates": [
     -117.64407,
     33.55267
    ]
   },
   "properties": {
    "lat": 33.55267,
    "lon": -117.64407,
    "area_m2": 412,
    "elongation": 3.4,
    "in_zone_a": true,
    "length_m": 61.0,
    "layer": "topo1968_water",
    "source": "USGS 7.5' San Juan Capistrano, 1968 ed.",
    "grade": "A1",
    "confidence": "Officially reported",
    "note": "Surface water body as drawn by USGS field survey, 1968"
   }
  },
  {
   "type": "Feature",
   "geometry": {
    "type": "Point",
    "coordinates": [
     -117.64745,
     33.52477
    ]
   },
   "properties": {
    "lat": 33.52477,
    "lon": -117.64745,
    "area_m2": 405,
    "elongation": 3.7,
    "in_zone_a": false,
    "length_m": 56.0,
    "layer": "topo1968_water",
    "source": "USGS 7.5' San Juan Capistrano, 1968 ed.",
    "grade": "A1",
    "confidence": "Officially reported",
    "note": "Surface water body as drawn by USGS field survey, 1968"
   }
  },
  {
   "type": "Feature",
   "geometry": {
    "type": "Point",
    "coordinates": [
     -117.64571,
     33.54078
    ]
   },
   "properties": {
    "lat": 33.54078,
    "lon": -117.64571,
    "area_m2": 399,
    "elongation": 4.2,
    "in_zone_a": true,
    "length_m": 53.0,
    "layer": "topo1968_water",
    "source": "USGS 7.5' San Juan Capistrano, 1968 ed.",
    "grade": "A1",
    "confidence": "Officially reported",
    "note": "Surface water body as drawn by USGS field survey, 1968"
   }
  },
  {
   "type": "Feature",
   "geometry": {
    "type": "Point",
    "coordinates": [
     -117.67546,
     33.55985
    ]
   },
   "properties": {
    "lat": 33.55985,
    "lon": -117.67546,
    "area_m2": 386,
    "elongation": 4.6,
    "in_zone_a": false,
    "length_m": 58.0,
    "layer": "topo1968_water",
    "source": "USGS 7.5' San Juan Capistrano, 1968 ed.",
    "grade": "A1",
    "confidence": "Officially reported",
    "note": "Surface water body as drawn by USGS field survey, 1968"
   }
  },
  {
   "type": "Feature",
   "geometry": {
    "type": "Point",
    "coordinates": [
     -117.67717,
     33.55853
    ]
   },
   "properties": {
    "lat": 33.55853,
    "lon": -117.67717,
    "area_m2": 379,
    "elongation": 2.7,
    "in_zone_a": false,
    "length_m": 41.0,
    "layer": "topo1968_water",
    "source": "USGS 7.5' San Juan Capistrano, 1968 ed.",
    "grade": "A1",
    "confidence": "Officially reported",
    "note": "Surface water body as drawn by USGS field survey, 1968"
   }
  },
  {
   "type": "Feature",
   "geometry": {
    "type": "Point",
    "coordinates": [
     -117.62619,
     33.5441
    ]
   },
   "properties": {
    "lat": 33.5441,
    "lon": -117.62619,
    "area_m2": 379,
    "elongation": 4.6,
    "in_zone_a": true,
    "length_m": 58.0,
    "layer": "topo1968_water",
    "source": "USGS 7.5' San Juan Capistrano, 1968 ed.",
    "grade": "A1",
    "confidence": "Officially reported",
    "note": "Surface water body as drawn by USGS field survey, 1968"
   }
  },
  {
   "type": "Feature",
   "geometry": {
    "type": "Point",
    "coordinates": [
     -117.66048,
     33.55143
    ]
   },
   "properties": {
    "lat": 33.55143,
    "lon": -117.66048,
    "area_m2": 373,
    "elongation": 1.2,
    "in_zone_a": true,
    "length_m": 25.0,
    "layer": "topo1968_water",
    "source": "USGS 7.5' San Juan Capistrano, 1968 ed.",
    "grade": "A1",
    "confidence": "Officially reported",
    "note": "Surface water body as drawn by USGS field survey, 1968"
   }
  },
  {
   "type": "Feature",
   "geometry": {
    "type": "Point",
    "coordinates": [
     -117.64507,
     33.54788
    ]
   },
   "properties": {
    "lat": 33.54788,
    "lon": -117.64507,
    "area_m2": 367,
    "elongation": 3.4,
    "in_zone_a": true,
    "length_m": 43.0,
    "layer": "topo1968_water",
    "source": "USGS 7.5' San Juan Capistrano, 1968 ed.",
    "grade": "A1",
    "confidence": "Officially reported",
    "note": "Surface water body as drawn by USGS field survey, 1968"
   }
  },
  {
   "type": "Feature",
   "geometry": {
    "type": "Point",
    "coordinates": [
     -117.65114,
     33.52019
    ]
   },
   "properties": {
    "lat": 33.52019,
    "lon": -117.65114,
    "area_m2": 367,
    "elongation": 1.6,
    "in_zone_a": false,
    "length_m": 41.0,
    "layer": "topo1968_water",
    "source": "USGS 7.5' San Juan Capistrano, 1968 ed.",
    "grade": "A1",
    "confidence": "Officially reported",
    "note": "Surface water body as drawn by USGS field survey, 1968"
   }
  },
  {
   "type": "Feature",
   "geometry": {
    "type": "Point",
    "coordinates": [
     -117.65569,
     33.56819
    ]
   },
   "properties": {
    "lat": 33.56819,
    "lon": -117.65569,
    "area_m2": 354,
    "elongation": 4.2,
    "in_zone_a": false,
    "length_m": 43.0,
    "layer": "topo1968_water",
    "source": "USGS 7.5' San Juan Capistrano, 1968 ed.",
    "grade": "A1",
    "confidence": "Officially reported",
    "note": "Surface water body as drawn by USGS field survey, 1968"
   }
  }
 ]
}