{
 "type": "FeatureCollection",
 "features": [
  {
   "type": "Feature",
   "geometry": {
    "type": "Polygon",
    "coordinates": [
     [
      [
       -117.55335415644839,
       33.5467
      ],
      [
       -117.55409799019296,
       33.55615841972609
      ],
      [
       -117.55631676422502,
       33.5654550032683
      ],
      [
       -117.55997251470575,
       33.574430683504715
      ],
      [
       -117.56500269073085,
       33.58293188405797
      ],
      [
       -117.5713212245939,
       33.59081314702962
      ],
      [
       -117.57882000442868,
       33.59793962182511
      ],
      [
       -117.58737072403316,
       33.604189372484875
      ],
      [
       -117.5968270782242,
       33.609455464042355
      ],
      [
       -117.60702726615979,
       33.61364779221096
      ],
      [
       -117.61779675979633,
       33.61669462509341
      ],
      [
       -117.62895129011184,
       33.618543830534335
      ],
      [
       -117.6403,
       33.619163768115946
      ],
      [
       -117.65164870988815,
       33.618543830534335
      ],
      [
       -117.66280324020366,
       33.61669462509341
      ],
      [
       -117.6735727338402,
       33.61364779221096
      ],
      [
       -117.6837729217758,
       33.609455464042355
      ],
      [
       -117.69322927596683,
       33.604189372484875
      ],
      [
       -117.70177999557131,
       33.59793962182511
      ],
      [
       -117.70927877540609,
       33.59081314702962
      ],
      [
       -117.71559730926914,
       33.58293188405797
      ],
      [
       -117.72062748529424,
       33.574430683504715
      ],
      [
       -117.72428323577498,
       33.5654550032683
      ],
      [
       -117.72650200980704,
       33.55615841972609
      ],
      [
       -117.7272458435516,
       33.5467
      ],
      [
       -117.72650200980704,
       33.537241580273914
      ],
      [
       -117.72428323577498,
       33.527944996731705
      ],
      [
       -117.72062748529424,
       33.51896931649529
      ],
      [
       -117.71559730926914,
       33.51046811594203
      ],
      [
       -117.70927877540609,
       33.50258685297038
      ],
      [
       -117.70177999557131,
       33.49546037817489
      ],
      [
       -117.69322927596683,
       33.48921062751513
      ],
      [
       -117.6837729217758,
       33.48394453595765
      ],
      [
       -117.6735727338402,
       33.47975220778904
      ],
      [
       -117.66280324020366,
       33.476705374906594
      ],
      [
       -117.65164870988815,
       33.47485616946567
      ],
      [
       -117.6403,
       33.474236231884056
      ],
      [
       -117.62895129011184,
       33.47485616946567
      ],
      [
       -117.61779675979633,
       33.476705374906594
      ],
      [
       -117.60702726615979,
       33.47975220778904
      ],
      [
       -117.5968270782242,
       33.48394453595765
      ],
      [
       -117.58737072403316,
       33.48921062751513
      ],
      [
       -117.57882000442868,
       33.49546037817489
      ],
      [
       -117.5713212245939,
       33.50258685297038
      ],
      [
       -117.56500269073085,
       33.51046811594203
      ],
      [
       -117.55997251470575,
       33.51896931649529
      ],
      [
       -117.55631676422502,
       33.527944996731705
      ],
      [
       -117.55409799019296,
       33.537241580273914
      ],
      [
       -117.55335415644839,
       33.5467
      ]
     ]
    ]
   },
   "properties": {
    "name": "Zone B \u2014 5-mile exposure ring",
    "zone": "B",
    "precision": "APPROXIMATE \u2014 5-mi radius from community centroid",
    "source": "Generated buffer",
    "confidence": "Model Estimate"
   }
  }
 ]
}