{
  "type": "FeatureCollection",
  "features": [
    {
      "type": "Feature",
      "geometry": {
        "type": "Point",
        "coordinates": [
          -117.634585,
          33.5617268
        ]
      },
      "properties": {
        "id": "LH-SCHOOL-CHAPARRAL",
        "name": "Chaparral Elementary School",
        "facilityType": "public_elementary",
        "address": "29001 Sienna Parkway Ladera Ranch CA 92694",
        "planningStart": "",
        "constructionStart": "",
        "openDate": "2001-09-01",
        "closeDate": "",
        "temporalPrecision": "month",
        "latitude": "33.5617268",
        "longitude": "-117.6345850",
        "geometryPrecision": "OpenStreetMap building centroid",
        "sourceIds": "LH-SRC-CUSD-CHAPARRAL;LH-SRC-OSM-SCHOOLS",
        "confidence": "high",
        "limitations": "Opening day and construction window unresolved",
        "notes": "Official report states September 2001",
        "openYear": 2001,
        "sourceId": "LH-SRC-CUSD-CHAPARRAL;LH-SRC-OSM-SCHOOLS",
        "statementClass": "documented_exact"
      }
    },
    {
      "type": "Feature",
      "geometry": {
        "type": "Point",
        "coordinates": [
          -117.6370381,
          33.55351
        ]
      },
      "properties": {
        "id": "LH-SCHOOL-LRES",
        "name": "Ladera Ranch Elementary School",
        "facilityType": "public_elementary",
        "address": "29551 Sienna Parkway Ladera Ranch CA 92694",
        "planningStart": "",
        "constructionStart": "",
        "openDate": "2003-08-27",
        "closeDate": "",
        "temporalPrecision": "day",
        "latitude": "33.5535100",
        "longitude": "-117.6370381",
        "geometryPrecision": "OpenStreetMap shared-campus building centroid",
        "sourceIds": "LH-SRC-CUSD-LRES;LH-SRC-OSM-SCHOOLS",
        "confidence": "high",
        "limitations": "Planning and construction window unresolved",
        "notes": "Shared campus opened as Ladera Ranch School",
        "openYear": 2003,
        "sourceId": "LH-SRC-CUSD-LRES;LH-SRC-OSM-SCHOOLS",
        "statementClass": "documented_exact"
      }
    },
    {
      "type": "Feature",
      "geometry": {
        "type": "Point",
        "coordinates": [
          -117.6370381,
          33.55351
        ]
      },
      "properties": {
        "id": "LH-SCHOOL-LRMS",
        "name": "Ladera Ranch Middle School",
        "facilityType": "public_middle",
        "address": "29551 Sienna Parkway Ladera Ranch CA 92694",
        "planningStart": "",
        "constructionStart": "",
        "openDate": "2003-08-27",
        "closeDate": "",
        "temporalPrecision": "day",
        "latitude": "33.5535100",
        "longitude": "-117.6370381",
        "geometryPrecision": "OpenStreetMap shared-campus building centroid",
        "sourceIds": "LH-SRC-CUSD-LRMS;LH-SRC-OSM-SCHOOLS",
        "confidence": "high",
        "limitations": "Separate middle-school identity dates to 2004; exact split day unresolved",
        "notes": "Shares campus and library with elementary school",
        "openYear": 2003,
        "sourceId": "LH-SRC-CUSD-LRMS;LH-SRC-OSM-SCHOOLS",
        "statementClass": "documented_exact"
      }
    },
    {
      "type": "Feature",
      "geometry": {
        "type": "Point",
        "coordinates": [
          -117.639842,
          33.5441597
        ]
      },
      "properties": {
        "id": "LH-SCHOOL-OSO-GRANDE",
        "name": "Oso Grande Elementary School",
        "facilityType": "public_elementary",
        "address": "30251 Sienna Parkway Ladera Ranch CA 92694",
        "planningStart": "",
        "constructionStart": "",
        "openDate": "2005-08-24",
        "closeDate": "",
        "temporalPrecision": "day",
        "latitude": "33.5441597",
        "longitude": "-117.6398420",
        "geometryPrecision": "OpenStreetMap building centroid",
        "sourceIds": "LH-SRC-CDE-OSO;LH-SRC-OSM-SCHOOLS",
        "confidence": "high",
        "limitations": "Planning and construction window unresolved",
        "notes": "CDE CDS 30-66464-0108704",
        "openYear": 2005,
        "sourceId": "LH-SRC-CDE-OSO;LH-SRC-OSM-SCHOOLS",
        "statementClass": "documented_exact"
      }
    }
  ]
}
