{"type": "FeatureCollection", "features": [{"type": "Feature", "id": 2840, "geometry": {"type": "LineString", "coordinates": [[-117.64424694551445, 33.53497061454965], [-117.64433691761384, 33.534955169538556], [-117.64442807626101, 33.53494579324566], [-117.64451983778916, 33.534942547211124], [-117.64461161570249, 33.5349454506278], [-117.64470282291471, 33.53495448572647], [-117.64479287708818, 33.53496959501097], [-117.64488120063308, 33.5349906812581], [-117.64496723150141, 33.53501760919985], [-117.64505041784659, 33.53505020828845], [-117.64512506999871, 33.535078627922246], [-117.64520279122897, 33.53510053158314], [-117.64528277246201, 33.535115690279916], [-117.64536418210297, 33.535123948314606], [-117.6454461724111, 33.53512521780102], [-117.64552789039614, 33.535119486658076], [-117.64560848635945, 33.53510681400554], [-117.64568712147414, 33.53508733278422], [-117.64576297737403, 33.53506124333633], [-117.6458352659445, 33.53502881960736], [-117.64590323451819, 33.534990397365355], [-117.64596617560821, 33.53494637679667], [-117.64602343434294, 33.534897216110075], [-117.64607441591608, 33.53484342604246], [-117.64611858984895, 33.53478556710579], [-117.64614576033972, 33.53474564551128], [-117.64614927723498, 33.534740478011855], [-117.64616394125602, 33.53471892846308], [-117.64616978202405, 33.534710344449266], [-117.6462360131014, 33.53461042642783], [-117.64629603201455, 33.53450779354106], [-117.64634968159574, 33.53440271627218], [-117.64639681983775, 33.53429547034397]]}, "properties": {"Base": 12, "Height": 12, "OBJECTID": 2840, "FacilityID": 720, "FacilitySystem": "Regional", "FacilityType": "Underground Conduit", "Ownership": "DISTRICT", "OwnerType": "1", "Watershed": "L", "ReachNum": "L05-05.01", "ReachDesc": "begin RCB to grade break", "StaDS": "35+04", "StaUS": "42+00", "Length": 696, "FacilityDesc": "RCB", "Material": "Riprap", "FeaNote": "None", "DwgID": 1915, "DrawingNum": "L05-701-2", "DwgNum": "L05-701-2", "Mslink": 1915, "Us_Sttn": "549299", "Us_Strt": "JUNCTION L05P01 & L05P04", "Ds_Sttn": "269997", "Ds_Strt": "HORNO CREEK RETARDING BASIN (L05B01)", "City": "UNINCORPORATED", "Type": "CONSTRUCTION", "Agency": "PDSD", "Firm": "HALL & FOREMAN, INC.", "Tract": "15990", "Dwg_Month": "", "Dwg_Year": "", "As_Blt_Month": "", "As_Blt_Year": "", "ROW": "EASEMENT", "Agreement": "", "Agr_Month": "", "Agr_Year": "", "MaintBy": "OCFCD", "File_In": "VAULT", "File_On": "MYLAR", "Sheets": "16", "MFDate": "", "Rack_No": "", "Info": "REGIONAL OCFCD IMPROVEMENT CONDITIONED UPON DEVELOPER (LADERA RANCH) BY TRACTS 15793 & 15990 AND PER LADERA PLANNED COMMUNITY RUNOFF MANAGEMENT PLAN.", "Public_Info": "REGIONAL OCFCD IMPROVEMENT CONDITIONED UPON DEVELOPER (LADERA RANCH) BY TRACTS 15793 & 15990 AND PER LADERA PLANNED COMMUNITY RUNOFF MANAGEMENT PLAN.", "Date_Entered": 1092849660000, "FACILITYNUM": "L05", "FACILITYNAME": "HORNO CREEK CHANNEL"}}, {"type": "Feature", "id": 2900, "geometry": {"type": "LineString", "coordinates": [[-117.64639681983775, 33.53429547034397], [-117.64643732210446, 33.53418634030086], [-117.64647108316817, 33.534075612272126], [-117.64649801191314, 33.533963579441554], [-117.64651803878483, 33.533850536553516], [-117.64655736201254, 33.53357959585638]]}, "properties": {"Base": 18, "Height": 15, "OBJECTID": 2900, "FacilityID": 720, "FacilitySystem": "Regional", "FacilityType": "Concrete-Lined", "Ownership": "DISTRICT", "OwnerType": "1", "Watershed": "L", "ReachNum": "L05-04.02", "ReachDesc": "u/s Horno Basin to d/s transition", "StaDS": "32+50", "StaUS": "35+04", "Length": 254, "FacilityDesc": "RCR", "Material": "Concrete", "FeaNote": "None", "DwgID": 1915, "DrawingNum": "L05-701-2", "DwgNum": "L05-701-2", "Mslink": 1915, "Us_Sttn": "549299", "Us_Strt": "JUNCTION L05P01 & L05P04", "Ds_Sttn": "269997", "Ds_Strt": "HORNO CREEK RETARDING BASIN (L05B01)", "City": "UNINCORPORATED", "Type": "CONSTRUCTION", "Agency": "PDSD", "Firm": "HALL & FOREMAN, INC.", "Tract": "15990", "Dwg_Month": "", "Dwg_Year": "", "As_Blt_Month": "", "As_Blt_Year": "", "ROW": "EASEMENT", "Agreement": "", "Agr_Month": "", "Agr_Year": "", "MaintBy": "OCFCD", "File_In": "VAULT", "File_On": "MYLAR", "Sheets": "16", "MFDate": "", "Rack_No": "", "Info": "REGIONAL OCFCD IMPROVEMENT CONDITIONED UPON DEVELOPER (LADERA RANCH) BY TRACTS 15793 & 15990 AND PER LADERA PLANNED COMMUNITY RUNOFF MANAGEMENT PLAN.", "Public_Info": "REGIONAL OCFCD IMPROVEMENT CONDITIONED UPON DEVELOPER (LADERA RANCH) BY TRACTS 15793 & 15990 AND PER LADERA PLANNED COMMUNITY RUNOFF MANAGEMENT PLAN.", "Date_Entered": 1092849660000, "FACILITYNUM": "L05", "FACILITYNAME": "HORNO CREEK CHANNEL"}}, {"type": "Feature", "id": 4950, "geometry": {"type": "LineString", "coordinates": [[-117.64102831543943, 33.53663996414105], [-117.6418769171807, 33.53678980657503], [-117.64196854742562, 33.53680663429006], [-117.64206160613023, 33.536816546041074], [-117.64215534907555, 33.5368194644835], [-117.64224902965994, 33.53681536550304], [-117.64234189895794, 33.53680428182143], [-117.64243321647216, 33.536786301974814], [-117.64252225442618, 33.53676156936375]]}, "properties": {"Base": 9.3, "Height": 12, "OBJECTID": 4950, "FacilityID": 720, "FacilitySystem": "Regional", "FacilityType": "Underground Conduit", "Ownership": "DISTRICT", "OwnerType": "1", "Watershed": "L", "ReachNum": "L05-06", "ReachDesc": "u/s transition to end RCB (d/s Covenant Hills Dri*", "StaDS": "52+82", "StaUS": "54+93", "Length": 211, "FacilityDesc": "2-RCB", "Material": "Concrete", "FeaNote": "None", "DwgID": 1915, "DrawingNum": "L05-701-2", "DwgNum": "L05-701-2", "Mslink": 1915, "Us_Sttn": "549299", "Us_Strt": "JUNCTION L05P01 & L05P04", "Ds_Sttn": "269997", "Ds_Strt": "HORNO CREEK RETARDING BASIN (L05B01)", "City": "UNINCORPORATED", "Type": "CONSTRUCTION", "Agency": "PDSD", "Firm": "HALL & FOREMAN, INC.", "Tract": "15990", "Dwg_Month": "", "Dwg_Year": "", "As_Blt_Month": "", "As_Blt_Year": "", "ROW": "EASEMENT", "Agreement": "", "Agr_Month": "", "Agr_Year": "", "MaintBy": "OCFCD", "File_In": "VAULT", "File_On": "MYLAR", "Sheets": "16", "MFDate": "", "Rack_No": "", "Info": "REGIONAL OCFCD IMPROVEMENT CONDITIONED UPON DEVELOPER (LADERA RANCH) BY TRACTS 15793 & 15990 AND PER LADERA PLANNED COMMUNITY RUNOFF MANAGEMENT PLAN.", "Public_Info": "REGIONAL OCFCD IMPROVEMENT CONDITIONED UPON DEVELOPER (LADERA RANCH) BY TRACTS 15793 & 15990 AND PER LADERA PLANNED COMMUNITY RUNOFF MANAGEMENT PLAN.", "Date_Entered": 1092849660000, "FACILITYNUM": "L05", "FACILITYNAME": "HORNO CREEK CHANNEL"}}, {"type": "Feature", "id": 2841, "geometry": {"type": "LineString", "coordinates": [[-117.6431264688634, 33.53625818638391], [-117.64345157254589, 33.53555650029062], [-117.64348813756037, 33.53548605657509], [-117.64353129923578, 33.535418281126276], [-117.64358077910997, 33.535353605369345], [-117.64363626397241, 33.53529244218182], [-117.64369739933268, 33.53523518145852], [-117.64376379585163, 33.53518218823627], [-117.64383502931223, 33.53513380089107], [-117.64391064594503, 33.53509032747182], [-117.64399016350448, 33.53505204568872], [-117.64407307444066, 33.53501919927084], [-117.64415885128183, 33.53499199790629], [-117.64424694551445, 33.53497061454965]]}, "properties": {"Base": 12, "Height": 12, "OBJECTID": 2841, "FacilityID": 720, "FacilitySystem": "Regional", "FacilityType": "Underground Conduit", "Ownership": "DISTRICT", "OwnerType": "1", "Watershed": "L", "ReachNum": "L05-05.02", "ReachDesc": "grade break to grade break", "StaDS": "42+00", "StaUS": "48+00", "Length": 600, "FacilityDesc": "RCB", "Material": "Concrete", "FeaNote": "None", "DwgID": 1915, "DrawingNum": "L05-701-2", "DwgNum": "L05-701-2", "Mslink": 1915, "Us_Sttn": "549299", "Us_Strt": "JUNCTION L05P01 & L05P04", "Ds_Sttn": "269997", "Ds_Strt": "HORNO CREEK RETARDING BASIN (L05B01)", "City": "UNINCORPORATED", "Type": "CONSTRUCTION", "Agency": "PDSD", "Firm": "HALL & FOREMAN, INC.", "Tract": "15990", "Dwg_Month": "", "Dwg_Year": "", "As_Blt_Month": "", "As_Blt_Year": "", "ROW": "EASEMENT", "Agreement": "", "Agr_Month": "", "Agr_Year": "", "MaintBy": "OCFCD", "File_In": "VAULT", "File_On": "MYLAR", "Sheets": "16", "MFDate": "", "Rack_No": "", "Info": "REGIONAL OCFCD IMPROVEMENT CONDITIONED UPON DEVELOPER (LADERA RANCH) BY TRACTS 15793 & 15990 AND PER LADERA PLANNED COMMUNITY RUNOFF MANAGEMENT PLAN.", "Public_Info": "REGIONAL OCFCD IMPROVEMENT CONDITIONED UPON DEVELOPER (LADERA RANCH) BY TRACTS 15793 & 15990 AND PER LADERA PLANNED COMMUNITY RUNOFF MANAGEMENT PLAN.", "Date_Entered": 1092849660000, "FACILITYNUM": "L05", "FACILITYNAME": "HORNO CREEK CHANNEL"}}, {"type": "Feature", "id": 2842, "geometry": {"type": "LineString", "coordinates": [[-117.64252225442618, 33.53676156936375], [-117.64260283201097, 33.53673250209782], [-117.64268022993433, 33.53669790315701], [-117.6427539093641, 33.536658014824475], [-117.64282335573087, 33.53661311518137], [-117.64288808518775, 33.536563518034264], [-117.64294764347638, 33.5365095693214], [-117.64300161774042, 33.536451645176086], [-117.64304962896082, 33.53639015020815], [-117.64309134266396, 33.5363255137767], [-117.6431264688634, 33.53625818638391]]}, "properties": {"Base": 12, "Height": 12, "OBJECTID": 2842, "FacilityID": 720, "FacilitySystem": "Regional", "FacilityType": "Underground Conduit", "Ownership": "DISTRICT", "OwnerType": "1", "Watershed": "L", "ReachNum": "L05-05.03", "ReachDesc": "grade break to d/s transition", "StaDS": "50+47", "StaUS": "52+82", "Length": 235, "FacilityDesc": "RCB", "Material": "Concrete", "FeaNote": "None", "DwgID": 1915, "DrawingNum": "L05-701-2", "DwgNum": "L05-701-2", "Mslink": 1915, "Us_Sttn": "549299", "Us_Strt": "JUNCTION L05P01 & L05P04", "Ds_Sttn": "269997", "Ds_Strt": "HORNO CREEK RETARDING BASIN (L05B01)", "City": "UNINCORPORATED", "Type": "CONSTRUCTION", "Agency": "PDSD", "Firm": "HALL & FOREMAN, INC.", "Tract": "15990", "Dwg_Month": "", "Dwg_Year": "", "As_Blt_Month": "", "As_Blt_Year": "", "ROW": "EASEMENT", "Agreement": "", "Agr_Month": "", "Agr_Year": "", "MaintBy": "OCFCD", "File_In": "VAULT", "File_On": "MYLAR", "Sheets": "16", "MFDate": "", "Rack_No": "", "Info": "REGIONAL OCFCD IMPROVEMENT CONDITIONED UPON DEVELOPER (LADERA RANCH) BY TRACTS 15793 & 15990 AND PER LADERA PLANNED COMMUNITY RUNOFF MANAGEMENT PLAN.", "Public_Info": "REGIONAL OCFCD IMPROVEMENT CONDITIONED UPON DEVELOPER (LADERA RANCH) BY TRACTS 15793 & 15990 AND PER LADERA PLANNED COMMUNITY RUNOFF MANAGEMENT PLAN.", "Date_Entered": 1092849660000, "FACILITYNUM": "L05", "FACILITYNAME": "HORNO CREEK CHANNEL"}}, {"type": "Feature", "id": 3380, "geometry": {"type": "LineString", "coordinates": [[-117.64695984189173, 33.52850582860635], [-117.64712107778038, 33.52822427843132], [-117.647141118618, 33.52820240868222], [-117.64716096038342, 33.52818424722307], [-117.6472021938509, 33.528152540825246], [-117.64723653695864, 33.528132961402754], [-117.6472511948017, 33.52812752904816], [-117.64726840536645, 33.528123373726494], [-117.64734241314409, 33.52811407048339], [-117.64737305146039, 33.52810680408293], [-117.64739900536071, 33.52809490222925], [-117.64745629106592, 33.528060337451436], [-117.64747176533449, 33.52805344684526], [-117.64748655774343, 33.52804895705023], [-117.64752046940433, 33.52804500915759], [-117.64753207430932, 33.52804236488822], [-117.64754718346153, 33.52803580298982], [-117.64756184322077, 33.528026658205114], [-117.64757483303185, 33.52801569356449], [-117.64758495135057, 33.52800391805421], [-117.64759375241235, 33.527983769554325], [-117.64759972069709, 33.527946595966085], [-117.64760446473352, 33.52791150195699], [-117.64760585781774, 33.5278820326113], [-117.64760401520873, 33.52785570240301], [-117.64759886777925, 33.527832093711076], [-117.64758961842281, 33.52780802069864], [-117.64757570612495, 33.5277813255407], [-117.64755391607048, 33.52775093521438], [-117.6475067317319, 33.52769898856319], [-117.64745662986418, 33.52764853001824], [-117.64743780668655, 33.527623023432476], [-117.64742361230614, 33.52758878855529], [-117.6474144554834, 33.52754681178732], [-117.64741351586501, 33.52753007833889], [-117.64741524258476, 33.52749259168292], [-117.64741393424113, 33.52747683532687], [-117.64739835924856, 33.52742602614142], [-117.64738912436805, 33.52738515755603], [-117.64738255857851, 33.52734341950919], [-117.64737269728913, 33.52728002402697], [-117.64737035735887, 33.5272493882826], [-117.64737297799583, 33.527220800562155], [-117.64738146950634, 33.527197120814535], [-117.64739526673924, 33.52718010381341], [-117.64743710993328, 33.52714475385227], [-117.64744461289654, 33.52713566236666], [-117.6474493038908, 33.527126786397794], [-117.6474522685115, 33.52711525441209], [-117.64745315977558, 33.52710165281448], [-117.64744873474113, 33.52705045425968], [-117.64744018897025, 33.526923274526055], [-117.64743854458753, 33.52686869216702], [-117.64743952507187, 33.526834226521416], [-117.64744164936903, 33.52679716371181], [-117.64744669592729, 33.52677693653314], [-117.64745330420409, 33.526765626944766], [-117.64745619391915, 33.526762466445696], [-117.64746372562465, 33.52675423126711], [-117.647507618857, 33.52672011435554], [-117.64752211864179, 33.52670657098309], [-117.64755343205782, 33.52667182611571], [-117.64756726670646, 33.5266490818618], [-117.64757238546093, 33.52663067714], [-117.64757398602227, 33.52660953011659], [-117.64757204656388, 33.52658582408556], [-117.64756660268056, 33.52656003385243], [-117.64755770646485, 33.52653709573755], [-117.64753574926404, 33.526496578282355], [-117.64748296386567, 33.52641348243179], [-117.64747303220324, 33.52639405730543], [-117.64746649249894, 33.52637608013108], [-117.64746023049031, 33.52633912679154], [-117.6474581354139, 33.526274344743044], [-117.64745893327768, 33.526210641133986], [-117.64745747256414, 33.52618529581215], [-117.64744869788336, 33.526137386851154], [-117.64743398000927, 33.526090002679496], [-117.64742313975489, 33.52599153052346], [-117.64741731506004, 33.525892894756815], [-117.64741556742105, 33.52583165616026], [-117.64741655628056, 33.52579112094867], [-117.64742052221912, 33.525757461280435], [-117.64742843325494, 33.525720459741756], [-117.64746989817719, 33.52558583483475], [-117.64748296886522, 33.525529961920626], [-117.64748809407632, 33.525488081795196], [-117.64749523245901, 33.525385246366845], [-117.64750428062828, 33.52533265577422], [-117.64751525340436, 33.525296321389725], [-117.64753079368586, 33.52525638566126], [-117.64759385248705, 33.5251222666899], [-117.64767943043992, 33.52493486208257], [-117.64771169095815, 33.524871890853554], [-117.64774347081465, 33.52481615589089], [-117.64777497091237, 33.52476722662317], [-117.6478130916121, 33.524713892952114], [-117.64797657991164, 33.52450323528089], [-117.64810806126653, 33.52430974129146], [-117.64814419759284, 33.52426253984079], [-117.64817954499256, 33.5242222805532], [-117.64822911849512, 33.52417455032764], [-117.64828954491982, 33.524124718898854], [-117.64834310624045, 33.52408479960203], [-117.64852691132396, 33.52395329661681], [-117.64867226678602, 33.52384757719822], [-117.64870793162125, 33.52381949910893], [-117.64873837258318, 33.52379315690453], [-117.6487974324343, 33.52373507001134], [-117.648866474468, 33.52365890687349], [-117.64888610071313, 33.52363147785984], [-117.64891589065769, 33.523589840759854], [-117.64896830468632, 33.523522496579766], [-117.64905115848485, 33.5234213628087], [-117.64908161496987, 33.52338948649306], [-117.64911142234256, 33.52336272299679], [-117.64914883944786, 33.523333228317064], [-117.64918305850395, 33.523309075285724], [-117.64921578717065, 33.52328906526253], [-117.64924745425135, 33.523272949062815], [-117.64928589416161, 33.523258444738495], [-117.64933152118921, 33.52324681634439], [-117.64937434423807, 33.52323911938899], [-117.6494976976276, 33.52322074693395], [-117.64964276679302, 33.523197462889485], [-117.64991496582003, 33.52316131522015], [-117.64998954871282, 33.523152236518456], [-117.65016875850118, 33.52313472481783], [-117.6502495125701, 33.523125255532854], [-117.65033397633978, 33.52311174443783], [-117.65040812683665, 33.5230951094353], [-117.6504660430942, 33.52307865793609], [-117.65052773580909, 33.52305870312299], [-117.65067326718633, 33.52300466585644], [-117.65077124010071, 33.522967748021486], [-117.65081561907586, 33.52294954606577], [-117.65085778173473, 33.522929154413994], [-117.65089279694553, 33.52290809475894], [-117.65092012498677, 33.522888291137136], [-117.65094675489897, 33.52286644395543], [-117.65097236369476, 33.52284282105291], [-117.65099660444058, 33.522817741034984], [-117.65101915092993, 33.52279153940645], [-117.65103967976094, 33.522764592218124], [-117.6510579062394, 33.52273727238023], [-117.65107358747748, 33.52270994151187], [-117.65109023327413, 33.52267475663181], [-117.65110366630269, 33.52263848436933], [-117.65111388656652, 33.52260112472557], [-117.65112089516026, 33.52256267859061], [-117.65112469208789, 33.522523145965074], [-117.65112527946306, 33.52248252412028], [-117.6511226530569, 33.52244081761254], [-117.65111681387823, 33.52239802192155], [-117.65108967024858, 33.52171073407822], [-117.65137720449135, 33.52116830519934], [-117.65172307059908, 33.52071110837866], [-117.65225598522393, 33.51935775371075], [-117.65251714716942, 33.51873935046522], [-117.65294624248338, 33.51823455609272], [-117.65299843831049, 33.51817861387544], [-117.65304410833075, 33.51811953416804], [-117.65306540567373, 33.51808692324854], [-117.65308592789117, 33.518051095609216], [-117.65312649304933, 33.51796643119313], [-117.65315990157202, 33.517881913263494], [-117.65317078163301, 33.51784651170824], [-117.65317850060522, 33.51781349747352], [-117.653182765104, 33.51778444286068], [-117.65318497303363, 33.51775167830945], [-117.65318475961007, 33.51763534977672], [-117.65318579068625, 33.51747219079216], [-117.65318232033964, 33.51731094459989], [-117.6531752105467, 33.517161037085316], [-117.65316497642392, 33.51702477896204], [-117.65315032427691, 33.51692041129029], [-117.65314864640744, 33.516872196275045], [-117.65315169894066, 33.51684349075943], [-117.65315788556978, 33.51681165881482], [-117.65318542515477, 33.51671297966644], [-117.65320024045236, 33.51666382217239], [-117.65321899190006, 33.516609466066804], [-117.65328958320181, 33.51642617371], [-117.65331847659299, 33.51635334330981], [-117.65332129487975, 33.516346241143985], [-117.65341449465994, 33.51612430304377], [-117.65343330512079, 33.51607423752004], [-117.65344042938621, 33.51605527696367], [-117.65346098951288, 33.515992708285154], [-117.65347078561382, 33.515955324301316], [-117.65349326454323, 33.515852529860005], [-117.6535023354571, 33.5158220035199], [-117.65351266069787, 33.515795241244874], [-117.65352754723258, 33.51576467096633], [-117.65354657647133, 33.515731509315266], [-117.6536101895991, 33.515635692897625], [-117.65367430895886, 33.515546667004536], [-117.65377563219336, 33.51541854397617], [-117.65387902732071, 33.51529282762713], [-117.65398638406889, 33.51516934695082], [-117.65400251280896, 33.5151513109445], [-117.65467989543235, 33.514435551133715], [-117.65488079721702, 33.51426279705386], [-117.65489847533796, 33.514245806564944], [-117.6549459025434, 33.514216533371815], [-117.65499126545808, 33.51418594891463], [-117.65503456195871, 33.514154055023155], [-117.65507579309276, 33.51412084988422], [-117.65511495993718, 33.51408633348763], [-117.6551520603689, 33.51405050766274], [-117.65518709649798, 33.51401336968249], [-117.65522006726363, 33.51397492046215], [-117.65524931537291, 33.51393739785086], [-117.65527672002183, 33.51389870667524], [-117.6553022822591, 33.51385884512123], [-117.65532600208611, 33.513817813189945], [-117.65533401705135, 33.51379630861546], [-117.65540753816201, 33.5135990276513], [-117.65588056682225, 33.51285913145466], [-117.65598403054045, 33.512752627230185], [-117.6560695045485, 33.51261599313118], [-117.6560819888924, 33.51259603856488], [-117.65613451056838, 33.512534191257416], [-117.65625728355622, 33.512401505368125], [-117.6562847907367, 33.512368838093295], [-117.65630738119076, 33.512338545594304], [-117.65633096517057, 33.51230169987352], [-117.65635445374151, 33.51225919782359], [-117.65642868307829, 33.512104514502454], [-117.65660538328365, 33.51173702996758], [-117.65673947494865, 33.511479939421996], [-117.65677033937618, 33.511412404170045], [-117.65679390624634, 33.51135086668966], [-117.65681550110928, 33.51128291860887], [-117.65683409420372, 33.511214398495795], [-117.65684959107985, 33.511145657287656], [-117.65686191634158, 33.51107702586811], [-117.65686489414104, 33.51102579333217], [-117.65686742437491, 33.5110138015849], [-117.65687162098168, 33.51100395062569], [-117.656880725822, 33.51099247428691], [-117.65689479184014, 33.510981590205205], [-117.65695059324361, 33.510952635429305], [-117.65696801000692, 33.51094187216424], [-117.65706539925256, 33.51086117347894], [-117.65712491139085, 33.51082068332168], [-117.65721736603449, 33.5107649088965], [-117.65728132319691, 33.51073006368158], [-117.6573081317483, 33.51071288302066], [-117.6573372529851, 33.51068798451312], [-117.65736541034012, 33.510656645075485], [-117.65739112027171, 33.51062185806896], [-117.6574390830939, 33.510549912828324], [-117.65748340498868, 33.51048228831493], [-117.65751787916494, 33.51042158495809], [-117.65753532342433, 33.51038441887189], [-117.6575518272786, 33.51034193514123], [-117.65760714417074, 33.5101710174802], [-117.65769034903593, 33.50997091482256], [-117.65770757441769, 33.50991944445538], [-117.65771883668454, 33.50987260244348], [-117.65772806197133, 33.5098167220614], [-117.65773175866299, 33.50977326051253], [-117.65773155635412, 33.5097361325775], [-117.65772860939886, 33.50969861909045], [-117.65772295920003, 33.50966121823537], [-117.65771467965016, 33.509624440452775], [-117.65770303912419, 33.509591111899894], [-117.65766734044041, 33.50951597206599], [-117.6576543447723, 33.50948157766991], [-117.65763628677605, 33.50941392819492], [-117.65763214950597, 33.50938837959554], [-117.65763067442525, 33.50936524725972], [-117.65763281396275, 33.50933763937129], [-117.65763974851147, 33.50930693123236], [-117.65767952576606, 33.5091950771356], [-117.65772200665953, 33.50905515969205], [-117.657752995536, 33.50896559365333], [-117.65779032694783, 33.50887671691595], [-117.6578807676989, 33.50868427620262], [-117.657995012817, 33.50842211994155], [-117.65801047650973, 33.50840368872159], [-117.65829913516556, 33.50805965810492], [-117.65831460086783, 33.508041225919875], [-117.65834513389227, 33.50797351540888], [-117.65837196554416, 33.50790489726001], [-117.65840327045231, 33.50780736072747], [-117.65842744687184, 33.50770772539055], [-117.65843371692995, 33.50766987855788], [-117.65844398554324, 33.507585156396914], [-117.65845045788885, 33.507548907831215], [-117.65846251783461, 33.50749937677251], [-117.65847678329757, 33.50745044564601], [-117.65849318802854, 33.507402345140115], [-117.658511661125, 33.50735528435436], [-117.65853088629201, 33.50730827096046], [-117.65854529303614, 33.507282321339545], [-117.65855950269128, 33.5072647085729], [-117.65857843528, 33.50724667715312], [-117.65865284113012, 33.5071898731832], [-117.65872080903345, 33.507137011332006], [-117.65882848413037, 33.50706126780226], [-117.65890633140047, 33.506996421024226], [-117.65893723261809, 33.50697547404307], [-117.65897346088194, 33.50695405916727], [-117.65909213235861, 33.506892817760345], [-117.65916702395268, 33.50685508482645], [-117.65924308471673, 33.506818969824764], [-117.65932031564243, 33.50678446733168], [-117.65939871571474, 33.50675158096344], [-117.65941667805475, 33.50673480838349], [-117.66000117854958, 33.50618896620777], [-117.66001913956751, 33.50617219264946], [-117.66005534590948, 33.50605591369215], [-117.66009429280031, 33.50594031242385], [-117.66011679157552, 33.50588065737666], [-117.66017793934876, 33.5057308997262], [-117.66020602118466, 33.505648577895], [-117.66021809766626, 33.5056024820109], [-117.66022918130123, 33.50555062724669], [-117.66026907163629, 33.505323692935605], [-117.66033246728314, 33.50504414627506], [-117.66038051771093, 33.504838049333095], [-117.66040125620741, 33.50472893838888], [-117.66040128696278, 33.50472877663179], [-117.66041526608107, 33.50463334568895], [-117.66042399532031, 33.504558285566446], [-117.66042900592954, 33.504490371365215], [-117.66043033666085, 33.504427936261564], [-117.66042850677937, 33.504348745076896], [-117.66042407912752, 33.50428385311041], [-117.66041652433724, 33.504225607120105], [-117.66040560966358, 33.504172724786905], [-117.66039443228166, 33.50413316839866], [-117.6603804965901, 33.5040927694982], [-117.66036379571389, 33.50405150201251], [-117.66034430951507, 33.50400931837737], [-117.66029691514174, 33.50392204650153], [-117.66023779080197, 33.5038299787052], [-117.66019844542862, 33.50377682878801], [-117.66015113233, 33.50372037505223], [-117.66009537086538, 33.50365971309537], [-117.6600136733712, 33.50357582891246], [-117.6599260011709, 33.50349254257866], [-117.65972112546388, 33.50331249795464], [-117.65958145872845, 33.50318753113325], [-117.65954380905963, 33.50315137462783], [-117.65951170651496, 33.50311792808586], [-117.6594436587749, 33.5030440874314], [-117.65940613553796, 33.50299954973249], [-117.65937558511874, 33.502956493038695], [-117.65935350592991, 33.50291592744951], [-117.65934011702764, 33.502881090382644], [-117.6593293835177, 33.502840919303196], [-117.65932135542238, 33.50279804758075], [-117.65930926018343, 33.502715705667185], [-117.65929934501037, 33.50264166377908], [-117.65929281489105, 33.50256728508551], [-117.65928967083482, 33.502492565968495], [-117.65928990751048, 33.502417510095434], [-117.65929304131237, 33.50239513169022], [-117.65935433030073, 33.501957478378166], [-117.65935469513272, 33.50193299424077], [-117.65935549022971, 33.50187974293677], [-117.65934866816612, 33.50180221240766], [-117.65933391321437, 33.50172546063198], [-117.65931133573007, 33.501650055345415], [-117.65928110297143, 33.501576555522306], [-117.65924343794957, 33.50150550688026], [-117.65919862037303, 33.50143743375415], [-117.65914698237188, 33.50137284094817], [-117.65908890625775, 33.50131220835115], [-117.65902482224047, 33.50125598284718], [-117.65895520527208, 33.50120458286023], [-117.6578564649713, 33.500640140524574]]}, "properties": {"Base": null, "Height": null, "OBJECTID": 3380, "FacilityID": 720, "FacilitySystem": "Regional", "FacilityType": "Natural Watercourse", "Ownership": "LOCAL", "OwnerType": "2", "Watershed": "L", "ReachNum": "L05-03", "ReachDesc": "d/s San Diego Freeway to d/s Horno Basin", "StaDS": null, "StaUS": null, "Length": 12000, "FacilityDesc": "Natural", "Material": "Concrete", "FeaNote": "None", "DwgID": null, "DrawingNum": "Not Available", "DwgNum": null, "Mslink": null, "Us_Sttn": null, "Us_Strt": null, "Ds_Sttn": null, "Ds_Strt": null, "City": null, "Type": null, "Agency": null, "Firm": null, "Tract": null, "Dwg_Month": null, "Dwg_Year": null, "As_Blt_Month": null, "As_Blt_Year": null, "ROW": null, "Agreement": null, "Agr_Month": null, "Agr_Year": null, "MaintBy": null, "File_In": null, "File_On": null, "Sheets": null, "MFDate": null, "Rack_No": null, "Info": null, "Public_Info": null, "Date_Entered": null, "FACILITYNUM": "L05", "FACILITYNAME": "HORNO CREEK CHANNEL"}}, {"type": "Feature", "id": 2839, "geometry": {"type": "LineString", "coordinates": [[-117.64655736201254, 33.53357959585638], [-117.64663048845578, 33.53307574396959], [-117.64669260473062, 33.53264775247981], [-117.64669914515608, 33.53260268524694]]}, "properties": {"Base": 18, "Height": 15, "OBJECTID": 2839, "FacilityID": 720, "FacilitySystem": "Regional", "FacilityType": "Concrete-Lined", "Ownership": "DISTRICT", "OwnerType": "1", "Watershed": "L", "ReachNum": "L05-04.01", "ReachDesc": "u/s Horno Basin to d/s transition", "StaDS": "28+74", "StaUS": "32+50", "Length": 376, "FacilityDesc": "RCR", "Material": "Riprap", "FeaNote": "None", "DwgID": 1915, "DrawingNum": "L05-701-2", "DwgNum": "L05-701-2", "Mslink": 1915, "Us_Sttn": "549299", "Us_Strt": "JUNCTION L05P01 & L05P04", "Ds_Sttn": "269997", "Ds_Strt": "HORNO CREEK RETARDING BASIN (L05B01)", "City": "UNINCORPORATED", "Type": "CONSTRUCTION", "Agency": "PDSD", "Firm": "HALL & FOREMAN, INC.", "Tract": "15990", "Dwg_Month": "", "Dwg_Year": "", "As_Blt_Month": "", "As_Blt_Year": "", "ROW": "EASEMENT", "Agreement": "", "Agr_Month": "", "Agr_Year": "", "MaintBy": "OCFCD", "File_In": "VAULT", "File_On": "MYLAR", "Sheets": "16", "MFDate": "", "Rack_No": "", "Info": "REGIONAL OCFCD IMPROVEMENT CONDITIONED UPON DEVELOPER (LADERA RANCH) BY TRACTS 15793 & 15990 AND PER LADERA PLANNED COMMUNITY RUNOFF MANAGEMENT PLAN.", "Public_Info": "REGIONAL OCFCD IMPROVEMENT CONDITIONED UPON DEVELOPER (LADERA RANCH) BY TRACTS 15793 & 15990 AND PER LADERA PLANNED COMMUNITY RUNOFF MANAGEMENT PLAN.", "Date_Entered": 1092849660000, "FACILITYNUM": "L05", "FACILITYNAME": "HORNO CREEK CHANNEL"}}]}