{"type": "FeatureCollection", "features": [{"type": "Feature", "properties": {"name": "Founder's Park", "leisure": "park", "osmType": "way", "osmId": 30993263, "provenanceGrade": "B2", "statementClass": "documented", "source": "OpenStreetMap contributors, ODbL, retrieved 2026-07-29"}, "geometry": {"type": "Polygon", "coordinates": [[[-117.6371971, 33.5518128], [-117.6371886, 33.5517341], [-117.6372143, 33.5516339], [-117.637077, 33.5513335], [-117.6370426, 33.5512548], [-117.6369826, 33.5512334], [-117.634236, 33.5513979], [-117.633824, 33.5513979], [-117.6337639, 33.551448], [-117.6337811, 33.5515195], [-117.6340214, 33.5523135], [-117.6343819, 33.5529572], [-117.6348282, 33.5535009], [-117.6353689, 33.5539587], [-117.6355492, 33.5537941], [-117.635326, 33.5536225], [-117.6364847, 33.5524422], [-117.6364504, 33.5523564], [-117.6364762, 33.552292], [-117.6365963, 33.5522348], [-117.6366736, 33.552242], [-117.6368624, 33.5520488], [-117.6371971, 33.5518128]]]}}, {"type": "Feature", "properties": {"name": "(unnamed)", "leisure": "pitch", "osmType": "way", "osmId": 30993274, "provenanceGrade": "B2", "statementClass": "documented", "source": "OpenStreetMap contributors, ODbL, retrieved 2026-07-29"}, "geometry": {"type": "Polygon", "coordinates": [[[-117.635816, 33.5517491], [-117.6357924, 33.5514662], [-117.6353938, 33.5514894], [-117.6354175, 33.5517723], [-117.635816, 33.5517491]]]}}, {"type": "Feature", "properties": {"name": "(unnamed)", "leisure": "pitch", "osmType": "way", "osmId": 30993315, "provenanceGrade": "B2", "statementClass": "documented", "source": "OpenStreetMap contributors, ODbL, retrieved 2026-07-29"}, "geometry": {"type": "Polygon", "coordinates": [[[-117.6360642, 33.552343], [-117.6361777, 33.5521985], [-117.6360034, 33.5521035], [-117.6358899, 33.5522479], [-117.6360642, 33.552343]]]}}, {"type": "Feature", "properties": {"name": "(unnamed)", "leisure": "pitch", "osmType": "way", "osmId": 30993317, "provenanceGrade": "B2", "statementClass": "documented", "source": "OpenStreetMap contributors, ODbL, retrieved 2026-07-29"}, "geometry": {"type": "Polygon", "coordinates": [[[-117.6351629, 33.5533864], [-117.635017, 33.5532648], [-117.6351544, 33.5531432], [-117.6352917, 33.5532505], [-117.6351629, 33.5533864]]]}}, {"type": "Feature", "properties": {"name": "(unnamed)", "leisure": "pitch", "osmType": "way", "osmId": 30993319, "provenanceGrade": "B2", "statementClass": "documented", "source": "OpenStreetMap contributors, ODbL, retrieved 2026-07-29"}, "geometry": {"type": "Polygon", "coordinates": [[[-117.6343561, 33.5524637], [-117.6345364, 33.5524065], [-117.6344507, 33.5522519], [-117.6342617, 33.5523206], [-117.6343561, 33.5524637]]]}}, {"type": "Feature", "properties": {"name": "(unnamed)", "leisure": "pitch", "osmType": "way", "osmId": 30993323, "provenanceGrade": "B2", "statementClass": "documented", "source": "OpenStreetMap contributors, ODbL, retrieved 2026-07-29"}, "geometry": {"type": "Polygon", "coordinates": [[[-117.6341931, 33.552149], [-117.6343561, 33.5521132], [-117.6343218, 33.5519844], [-117.6341673, 33.5520131], [-117.6341931, 33.552149]]]}}, {"type": "Feature", "properties": {"name": "Town Green", "leisure": "park", "osmType": "way", "osmId": 30993580, "provenanceGrade": "B2", "statementClass": "documented", "source": "OpenStreetMap contributors, ODbL, retrieved 2026-07-29"}, "geometry": {"type": "Polygon", "coordinates": [[[-117.6338152, 33.56473], [-117.6338274, 33.564662], [-117.6337824, 33.5645742], [-117.6334726, 33.5641462], [-117.6334701, 33.5641044], [-117.6334428, 33.5640655], [-117.6334128, 33.5640276], [-117.6333753, 33.5640087], [-117.6333348, 33.5640078], [-117.6333004, 33.564015], [-117.6332706, 33.564023], [-117.6332193, 33.5640495], [-117.6332094, 33.5640715], [-117.6328558, 33.5642329], [-117.6325305, 33.564409], [-117.6324883, 33.564395], [-117.6324164, 33.5644215], [-117.6323815, 33.5644374], [-117.6323586, 33.5644668], [-117.6323529, 33.5644943], [-117.6323588, 33.5645253], [-117.6323894, 33.5645689], [-117.6324315, 33.5646016], [-117.632594, 33.5648419], [-117.6326798, 33.5649678], [-117.6327339, 33.5650586], [-117.6327859, 33.5651272], [-117.6328288, 33.5651565], [-117.6328798, 33.5651692], [-117.6330597, 33.565101], [-117.6338152, 33.56473]]]}}, {"type": "Feature", "properties": {"name": "Terramor Skate Park", "leisure": "pitch", "osmType": "way", "osmId": 31051942, "provenanceGrade": "B2", "statementClass": "documented", "source": "OpenStreetMap contributors, ODbL, retrieved 2026-07-29"}, "geometry": {"type": "Polygon", "coordinates": [[[-117.6411307, 33.5449659], [-117.6411994, 33.5449446], [-117.6412458, 33.544891], [-117.6412522, 33.5448346], [-117.6412361, 33.5447765], [-117.6411944, 33.5446393], [-117.6411896, 33.544532], [-117.6411196, 33.5444659], [-117.6410681, 33.5444609], [-117.6410024, 33.5444496], [-117.6409684, 33.5444543], [-117.6409396, 33.5444768], [-117.640941, 33.5446313], [-117.6409479, 33.5446755], [-117.6409143, 33.5447993], [-117.6409393, 33.5449045], [-117.6410242, 33.5449661], [-117.6410774, 33.5449749], [-117.6411307, 33.5449659]]]}}, {"type": "Feature", "properties": {"name": "(unnamed)", "leisure": "park", "osmType": "way", "osmId": 61264483, "provenanceGrade": "B2", "statementClass": "documented", "source": "OpenStreetMap contributors, ODbL, retrieved 2026-07-29"}, "geometry": {"type": "Polygon", "coordinates": [[[-117.6268184, 33.5654694], [-117.626445, 33.5654688], [-117.6264461, 33.5649642], [-117.6268195, 33.5649647], [-117.6268184, 33.5654694]]]}}, {"type": "Feature", "properties": {"name": "Soccer Field #3", "leisure": "pitch", "osmType": "way", "osmId": 132130189, "provenanceGrade": "B2", "statementClass": "documented", "source": "OpenStreetMap contributors, ODbL, retrieved 2026-07-29"}, "geometry": {"type": "Polygon", "coordinates": [[[-117.6447383, 33.566611], [-117.6446169, 33.5657604], [-117.644144, 33.5658072], [-117.6442655, 33.5666579], [-117.6447383, 33.566611]]]}}, {"type": "Feature", "properties": {"name": "(unnamed)", "leisure": "pitch", "osmType": "way", "osmId": 132130193, "provenanceGrade": "B2", "statementClass": "documented", "source": "OpenStreetMap contributors, ODbL, retrieved 2026-07-29"}, "geometry": {"type": "Polygon", "coordinates": [[[-117.6460392, 33.5659793], [-117.6461234, 33.5667365], [-117.6461973, 33.5667728], [-117.6467635, 33.5669329], [-117.6467865, 33.5669477], [-117.6469134, 33.5668202], [-117.6468902, 33.5668054], [-117.6473712, 33.5663142], [-117.6471686, 33.5661543], [-117.6470005, 33.5659068], [-117.6469768, 33.5658382], [-117.6461141, 33.5659067], [-117.6460392, 33.5659793]]]}}, {"type": "Feature", "properties": {"name": "Soccer Field #1", "leisure": "pitch", "osmType": "way", "osmId": 132130196, "provenanceGrade": "B2", "statementClass": "documented", "source": "OpenStreetMap contributors, ODbL, retrieved 2026-07-29"}, "geometry": {"type": "Polygon", "coordinates": [[[-117.6475156, 33.5647386], [-117.647157, 33.565109], [-117.6471039, 33.5651639], [-117.6463397, 33.5646505], [-117.6467515, 33.564225], [-117.6475156, 33.5647386]]]}}, {"type": "Feature", "properties": {"name": "(unnamed)", "leisure": "pitch", "osmType": "way", "osmId": 132130198, "provenanceGrade": "B2", "statementClass": "documented", "source": "OpenStreetMap contributors, ODbL, retrieved 2026-07-29"}, "geometry": {"type": "Polygon", "coordinates": [[[-117.6458325, 33.565996], [-117.6458782, 33.5664123], [-117.6459111, 33.5664107], [-117.6459073, 33.5664953], [-117.6458537, 33.5667159], [-117.6458309, 33.5667476], [-117.6457677, 33.5667523], [-117.6455038, 33.5667717], [-117.6451822, 33.5666418], [-117.6451175, 33.566604], [-117.6450419, 33.566527], [-117.6449777, 33.5664487], [-117.6448963, 33.5662826], [-117.644871, 33.5662028], [-117.6448404, 33.566063], [-117.6448362, 33.5660247], [-117.6457389, 33.5659358], [-117.6458325, 33.565996]]]}}, {"type": "Feature", "properties": {"name": "(unnamed)", "leisure": "pitch", "osmType": "way", "osmId": 132130201, "provenanceGrade": "B2", "statementClass": "documented", "source": "OpenStreetMap contributors, ODbL, retrieved 2026-07-29"}, "geometry": {"type": "Polygon", "coordinates": [[[-117.6460734, 33.5657494], [-117.6465989, 33.5657045], [-117.6466989, 33.5655992], [-117.6466978, 33.5655698], [-117.646677, 33.5655236], [-117.6464795, 33.5652297], [-117.6462466, 33.5651423], [-117.6459316, 33.5651703], [-117.6459446, 33.5652807], [-117.6459931, 33.5656925], [-117.6460734, 33.5657494]]]}}, {"type": "Feature", "properties": {"name": "(unnamed)", "leisure": "pitch", "osmType": "way", "osmId": 132130202, "provenanceGrade": "B2", "statementClass": "documented", "source": "OpenStreetMap contributors, ODbL, retrieved 2026-07-29"}, "geometry": {"type": "Polygon", "coordinates": [[[-117.6458016, 33.5657153], [-117.6457551, 33.5652935], [-117.64574, 33.565157], [-117.6456615, 33.565139], [-117.6455863, 33.5651326], [-117.6454977, 33.5651388], [-117.6453888, 33.5651696], [-117.6453057, 33.5652077], [-117.6452165, 33.5652623], [-117.6451454, 33.565321], [-117.6450912, 33.5653884], [-117.6450446, 33.5654764], [-117.6450258, 33.5655762], [-117.6450227, 33.5656565], [-117.6450393, 33.5657406], [-117.6450713, 33.5658238], [-117.645733, 33.5657721], [-117.6458016, 33.5657153]]]}}, {"type": "Feature", "properties": {"name": "Cordova Park", "leisure": "park", "osmType": "way", "osmId": 163328039, "provenanceGrade": "B2", "statementClass": "documented", "source": "OpenStreetMap contributors, ODbL, retrieved 2026-07-29"}, "geometry": {"type": "Polygon", "coordinates": [[[-117.6557098, 33.5720742], [-117.6556151, 33.5721026], [-117.6555897, 33.5720955], [-117.6555718, 33.572085], [-117.6555538, 33.5720612], [-117.6554221, 33.571874], [-117.6552817, 33.5717023], [-117.6551782, 33.571591], [-117.6550684, 33.5714884], [-117.6549544, 33.5713894], [-117.654858, 33.5713157], [-117.6548366, 33.5712963], [-117.6548282, 33.5712783], [-117.6548285, 33.5712562], [-117.6548483, 33.5712263], [-117.6548874, 33.5711907], [-117.6549507, 33.5711221], [-117.6549909, 33.5710688], [-117.6550303, 33.5710138], [-117.6550869, 33.5709175], [-117.6556881, 33.5707732], [-117.6560052, 33.5706971], [-117.6561244, 33.5706685], [-117.6561293, 33.5705559], [-117.656138, 33.5703924], [-117.656147, 33.5701643], [-117.6561584, 33.5699737], [-117.6561683, 33.5698188], [-117.6561742, 33.5696943], [-117.6561424, 33.5696159], [-117.6560652, 33.5694897], [-117.6559896, 33.5693462], [-117.6558848, 33.569168], [-117.6558157, 33.5690587], [-117.6556512, 33.5687726], [-117.655533, 33.5685275], [-117.6554775, 33.5684953], [-117.6553301, 33.5682587], [-117.6552213, 33.5682099], [-117.6551313, 33.5682005], [-117.6551282, 33.5681648], [-117.6551118, 33.5681364], [-117.6550693, 33.568108], [-117.6551162, 33.5680812], [-117.6551711, 33.5680354], [-117.6551876, 33.5680174], [-117.6551174, 33.5679014], [-117.6550505, 33.567782], [-117.6550443, 33.5677508], [-117.6550236, 33.5676812], [-117.6549897, 33.5675478], [-117.65491, 33.5674814], [-117.6549302, 33.5674547], [-117.6549422, 33.5674309], [-117.654947, 33.5673939], [-117.6549369, 33.5673558], [-117.6549201, 33.5673306], [-117.6548948, 33.5673068], [-117.6549444, 33.5672461], [-117.6549331, 33.5671496], [-117.65491, 33.5670184], [-117.6549047, 33.5669774], [-117.6549513, 33.5669465], [-117.6549538, 33.5668616], [-117.6549522, 33.5667241], [-117.6549411, 33.5666533], [-117.6548584, 33.5666105], [-117.6548762, 33.5665854], [-117.6548836, 33.5665461], [-117.6548753, 33.5665054], [-117.6548584, 33.5664752], [-117.6549068, 33.5664463], [-117.6549655, 33.5664185], [-117.6549751, 33.5663079], [-117.6549769, 33.5661693], [-117.6550139, 33.5661364], [-117.655032, 33.566005], [-117.6550423, 33.5658976], [-117.6550118, 33.5658092], [-117.6550234, 33.5657778], [-117.6550283, 33.5657425], [-117.655019, 33.5657123], [-117.6550669, 33.5656962], [-117.6550785, 33.5656432], [-117.6550886, 33.5656072], [-117.6551045, 33.5654608], [-117.6551344, 33.5652163], [-117.6551549, 33.5650162], [-117.6551094, 33.5648863], [-117.655069, 33.5648122], [-117.6550017, 33.5647954], [-117.6549704, 33.5647383], [-117.6549307, 33.5647115], [-117.6548615, 33.5646935], [-117.6548331, 33.5646256], [-117.6547882, 33.5645693], [-117.6547205, 33.5645107], [-117.654544, 33.5643437], [-117.6545746, 33.5643168], [-117.6546599, 33.5642593], [-117.6547545, 33.5641844], [-117.6548357, 33.5640961], [-117.65488, 33.5640345], [-117.6549162, 33.5639674], [-117.6549574, 33.5638718], [-117.6549722, 33.5638204], [-117.6549877, 33.5637377], [-117.6550013, 33.5636176], [-117.6550083, 33.5636027], [-117.6550262, 33.5635849], [-117.6550469, 33.5635794], [-117.6550694, 33.5635783], [-117.6550557, 33.5636355], [-117.6550419, 33.5637094], [-117.6550261, 33.5637966], [-117.6550131, 33.5638817], [-117.655066, 33.5639087], [-117.6551462, 33.5639592], [-117.6551363, 33.5639732], [-117.6551263, 33.5639966], [-117.6551251, 33.5640261], [-117.6551278, 33.564054], [-117.6551427, 33.5640818], [-117.6551632, 33.5641044], [-117.6551831, 33.5641179], [-117.6552131, 33.5641322], [-117.6552469, 33.5641395], [-117.6552839, 33.5641399], [-117.6553206, 33.5641314], [-117.6553671, 33.5641121], [-117.6553871, 33.5642002], [-117.6554011, 33.5642667], [-117.655417, 33.5643322], [-117.6554306, 33.5643982], [-117.6554408, 33.5644169], [-117.6554579, 33.5644684], [-117.6554901, 33.5646047], [-117.6555045, 33.5646769], [-117.6555229, 33.5647111], [-117.6555042, 33.5647258], [-117.6554852, 33.5647715], [-117.6554821, 33.564817], [-117.6554904, 33.5648453], [-117.6554973, 33.5648567], [-117.6555127, 33.5648764], [-117.6555295, 33.5648902], [-117.655496, 33.5649326], [-117.6554826, 33.5649852], [-117.655461, 33.5650884], [-117.6554437, 33.5652297], [-117.6554399, 33.5653015], [-117.6554321, 33.5654358], [-117.6554844, 33.5654821], [-117.6554633, 33.5655021], [-117.6554443, 33.5655366], [-117.6554397, 33.5655678], [-117.655444, 33.5655969], [-117.6554557, 33.5656235], [-117.6554199, 33.5656428], [-117.6553628, 33.5656689], [-117.6553145, 33.5656992], [-117.6552979, 33.5657684], [-117.6552861, 33.5658648], [-117.655272, 33.5659869], [-117.6552585, 33.5660703], [-117.6552395, 33.5661765], [-117.6552159, 33.566324], [-117.6553602, 33.5663418], [-117.6553589, 33.5663763], [-117.6553676, 33.5664113], [-117.6553803, 33.5664334], [-117.655349, 33.5664451], [-117.6552909, 33.5664743], [-117.6552837, 33.5665736], [-117.6552814, 33.5666421], [-117.6552746, 33.5667833], [-117.655295, 33.566821], [-117.6553256, 33.5668488], [-117.6553473, 33.5669802], [-117.6553641, 33.5670531], [-117.6553839, 33.567085], [-117.6554194, 33.5671034], [-117.6553869, 33.5671453], [-117.6553812, 33.5671772], [-117.655383, 33.5672154], [-117.6554006, 33.5672569], [-117.655344, 33.5672973], [-117.6553151, 33.5673274], [-117.6553315, 33.5673955], [-117.6553601, 33.5675012], [-117.6553759, 33.5675653], [-117.65539, 33.5676111], [-117.6554296, 33.5676055], [-117.6554437, 33.5676528], [-117.6554762, 33.5677724], [-117.6555013, 33.5678664], [-117.655576, 33.5679118], [-117.6555638, 33.5679426], [-117.6555583, 33.5679753], [-117.6555645, 33.5680053], [-117.6555782, 33.5680307], [-117.6556023, 33.5680527], [-117.6556305, 33.5680691], [-117.6556616, 33.5680812], [-117.6556488, 33.5681138], [-117.6556411, 33.5681403], [-117.6556577, 33.5682046], [-117.6556763, 33.5682886], [-117.6556918, 33.5683409], [-117.655822, 33.5683315], [-117.6560678, 33.5682875], [-117.6563967, 33.5681826], [-117.6566438, 33.5681829], [-117.6566354, 33.5684037], [-117.6565784, 33.5684019], [-117.6564273, 33.5683969], [-117.6562911, 33.5683969], [-117.6562517, 33.5684189], [-117.6562433, 33.5685578], [-117.6562444, 33.5687003], [-117.6562583, 33.568782], [-117.656273, 33.5688542], [-117.6563576, 33.5689571], [-117.6564287, 33.5690417], [-117.6565258, 33.5690692], [-117.6565218, 33.5690921], [-117.6565109, 33.5691796], [-117.6564985, 33.5692717], [-117.6564913, 33.5693692], [-117.6564849, 33.5694616], [-117.6564592, 33.5694734], [-117.6564434, 33.569487], [-117.6564247, 33.569513], [-117.6564117, 33.5695449], [-117.6564081, 33.5695689], [-117.6564108, 33.5695975], [-117.6564233, 33.5696273], [-117.6564376, 33.5696497], [-117.6564614, 33.5696694], [-117.6565089, 33.5696877], [-117.6565623, 33.5696936], [-117.6566048, 33.5696888], [-117.6566016, 33.569701], [-117.656573, 33.5697334], [-117.6565379, 33.5697938], [-117.6565022, 33.5698556], [-117.6564952, 33.5699413], [-117.6564816, 33.5700218], [-117.6564803, 33.570057], [-117.6564806, 33.5701154], [-117.656453, 33.5701268], [-117.6564308, 33.5701387], [-117.6564054, 33.5701607], [-117.656385, 33.5701966], [-117.6563792, 33.5702216], [-117.6563816, 33.5702559], [-117.6563882, 33.5702783], [-117.6563997, 33.5702983], [-117.6563848, 33.5703128], [-117.6563785, 33.5703298], [-117.6563704, 33.570353], [-117.6563602, 33.5703931], [-117.6563605, 33.5704109], [-117.6563524, 33.5704775], [-117.6563413, 33.5705846], [-117.6563442, 33.5706569], [-117.6563475, 33.5707214], [-117.6563653, 33.5708426], [-117.6563826, 33.5709655], [-117.6564542, 33.5709802], [-117.6564294, 33.5709987], [-117.6564033, 33.5710444], [-117.656399, 33.5710868], [-117.6564085, 33.5711289], [-117.6564427, 33.5711673], [-117.6564798, 33.5711908], [-117.6565339, 33.5712038], [-117.6565758, 33.5712025], [-117.6566213, 33.5711874], [-117.6566797, 33.5711445], [-117.6567174, 33.5711186], [-117.6567166, 33.5712128], [-117.6567158, 33.5713178], [-117.6567323, 33.5713349], [-117.6567992, 33.5713914], [-117.6567993, 33.5714657], [-117.6567947, 33.5716727], [-117.6567306, 33.5716709], [-117.6566094, 33.5716709], [-117.6564986, 33.5716841], [-117.6563425, 33.5717211], [-117.6562366, 33.5717591], [-117.6561473, 33.5718031], [-117.6560498, 33.5718621], [-117.655973, 33.5719225], [-117.6559045, 33.5719744], [-117.6558548, 33.5720053], [-117.6557753, 33.5720453], [-117.6557098, 33.5720742]]]}}, {"type": "Feature", "properties": {"name": "Coronado Park", "leisure": "park", "osmType": "way", "osmId": 163328041, "provenanceGrade": "B2", "statementClass": "documented", "source": "OpenStreetMap contributors, ODbL, retrieved 2026-07-29"}, "geometry": {"type": "Polygon", "coordinates": [[[-117.6640413, 33.5447596], [-117.6639059, 33.5447156], [-117.6637284, 33.5446508], [-117.663758, 33.5445931], [-117.6638073, 33.5444919], [-117.6640056, 33.5445586], [-117.6641321, 33.544687], [-117.6641712, 33.5447401], [-117.6642474, 33.5448163], [-117.6643462, 33.5449251], [-117.6644056, 33.5449947], [-117.6645045, 33.5450999], [-117.6646046, 33.5452172], [-117.6648773, 33.5450433], [-117.6649365, 33.5451109], [-117.6649723, 33.5451509], [-117.665006, 33.5451891], [-117.6650431, 33.545223], [-117.6650877, 33.5452629], [-117.6651345, 33.5453025], [-117.6651206, 33.5453171], [-117.6651315, 33.5453264], [-117.6651358, 33.5453431], [-117.6651297, 33.5453566], [-117.6651236, 33.5453673], [-117.6651351, 33.5453788], [-117.6650726, 33.545442], [-117.6649961, 33.5455146], [-117.6648924, 33.5456108], [-117.6646332, 33.5454315], [-117.6644973, 33.5455559], [-117.6643799, 33.5456037], [-117.6642364, 33.5456569], [-117.6638435, 33.5456547], [-117.6638493, 33.5459444], [-117.6636463, 33.5459452], [-117.6636437, 33.5459213], [-117.6636463, 33.5458447], [-117.6636536, 33.545642], [-117.6636585, 33.5455185], [-117.6637621, 33.5453183], [-117.663909, 33.5450243], [-117.6639609, 33.5449118], [-117.6640413, 33.5447596]]]}}, {"type": "Feature", "properties": {"name": "Granada Park", "leisure": "park", "osmType": "way", "osmId": 163328066, "provenanceGrade": "B2", "statementClass": "documented", "source": "OpenStreetMap contributors, ODbL, retrieved 2026-07-29"}, "geometry": {"type": "Polygon", "coordinates": [[[-117.6697471, 33.5687155], [-117.670198, 33.5690709], [-117.6699199, 33.5692214], [-117.6696564, 33.5693066], [-117.6694941, 33.5693019], [-117.6693073, 33.5692729], [-117.6689658, 33.5691918], [-117.6686401, 33.5691142], [-117.6680182, 33.5689022], [-117.6681364, 33.5688033], [-117.6682318, 33.5687434], [-117.6684355, 33.5686316], [-117.6685898, 33.5685706], [-117.6688548, 33.5685237], [-117.6690773, 33.5685125], [-117.6693255, 33.5685482], [-117.6695619, 33.5686218], [-117.6697471, 33.5687155]]]}}, {"type": "Feature", "properties": {"name": "(unnamed)", "leisure": "park", "osmType": "way", "osmId": 219733367, "provenanceGrade": "B2", "statementClass": "documented", "source": "OpenStreetMap contributors, ODbL, retrieved 2026-07-29"}, "geometry": {"type": "Polygon", "coordinates": [[[-117.6334448, 33.5562539], [-117.6334285, 33.5562748], [-117.6333611, 33.5564518], [-117.6333215, 33.5565884], [-117.6332944, 33.5567206], [-117.63328, 33.5568663], [-117.6332771, 33.5569971], [-117.6332813, 33.5571294], [-117.633304, 33.5572708], [-117.6333339, 33.5574109], [-117.6333504, 33.5574382], [-117.6333759, 33.5574556], [-117.633407, 33.5574591], [-117.6334319, 33.5574583], [-117.6335668, 33.557416], [-117.6335799, 33.5573972], [-117.6336661, 33.5573525], [-117.6337389, 33.5573012], [-117.6338045, 33.5572448], [-117.6338636, 33.5571773], [-117.6339148, 33.5571], [-117.633951, 33.5570167], [-117.6339759, 33.5569999], [-117.6339951, 33.5569215], [-117.634, 33.5568312], [-117.6339975, 33.5567679], [-117.6339878, 33.5567084], [-117.6339593, 33.5566843], [-117.6339275, 33.5565978], [-117.6338793, 33.5565156], [-117.6338499, 33.5564751], [-117.6338154, 33.5564364], [-117.6337348, 33.5563636], [-117.6337256, 33.5563419], [-117.6336753, 33.5563096], [-117.6336062, 33.5562727], [-117.633528, 33.5562383], [-117.6334958, 33.5562364], [-117.6334448, 33.5562539]]]}}, {"type": "Feature", "properties": {"name": "(unnamed)", "leisure": "park", "osmType": "way", "osmId": 219733369, "provenanceGrade": "B2", "statementClass": "documented", "source": "OpenStreetMap contributors, ODbL, retrieved 2026-07-29"}, "geometry": {"type": "Polygon", "coordinates": [[[-117.6480989, 33.5464535], [-117.6477386, 33.5457244], [-117.6464617, 33.5461626], [-117.6468219, 33.5468917], [-117.6480989, 33.5464535]]]}}, {"type": "Feature", "properties": {"name": "(unnamed)", "leisure": "park", "osmType": "way", "osmId": 219733371, "provenanceGrade": "B2", "statementClass": "documented", "source": "OpenStreetMap contributors, ODbL, retrieved 2026-07-29"}, "geometry": {"type": "Polygon", "coordinates": [[[-117.6318479, 33.5618345], [-117.6317159, 33.5623231], [-117.6330718, 33.5625775], [-117.6332038, 33.5620889], [-117.6318479, 33.5618345]]]}}, {"type": "Feature", "properties": {"name": "(unnamed)", "leisure": "park", "osmType": "way", "osmId": 219733373, "provenanceGrade": "B2", "statementClass": "documented", "source": "OpenStreetMap contributors, ODbL, retrieved 2026-07-29"}, "geometry": {"type": "Polygon", "coordinates": [[[-117.6434251, 33.5482269], [-117.6442523, 33.5480044], [-117.6444213, 33.5484408], [-117.6435942, 33.5486633], [-117.6434251, 33.5482269]]]}}, {"type": "Feature", "properties": {"name": "(unnamed)", "leisure": "park", "osmType": "way", "osmId": 219733375, "provenanceGrade": "B2", "statementClass": "documented", "source": "OpenStreetMap contributors, ODbL, retrieved 2026-07-29"}, "geometry": {"type": "Polygon", "coordinates": [[[-117.6332361, 33.5527266], [-117.6336728, 33.5534514], [-117.6330653, 33.5537056], [-117.6326286, 33.5529808], [-117.6332361, 33.5527266]]]}}, {"type": "Feature", "properties": {"name": "(unnamed)", "leisure": "park", "osmType": "way", "osmId": 256660262, "provenanceGrade": "B2", "statementClass": "documented", "source": "OpenStreetMap contributors, ODbL, retrieved 2026-07-29"}, "geometry": {"type": "Polygon", "coordinates": [[[-117.668477, 33.5380524], [-117.6689069, 33.5381707], [-117.6692895, 33.538013], [-117.6695475, 33.5378848], [-117.6695147, 33.5378123], [-117.6694486, 33.5376698], [-117.6693487, 33.5374613], [-117.6693359, 33.5374663], [-117.6693252, 33.5374741], [-117.6693143, 33.5374828], [-117.6692939, 33.5374894], [-117.6692203, 33.5375026], [-117.6691632, 33.5375068], [-117.6691027, 33.5375076], [-117.6690347, 33.5375045], [-117.6689492, 33.5374976], [-117.6688556, 33.5374751], [-117.6688031, 33.5374617], [-117.6687558, 33.5374501], [-117.6687173, 33.5374438], [-117.6686542, 33.5374403], [-117.6685914, 33.5374402], [-117.6685386, 33.5374477], [-117.6684719, 33.5374642], [-117.6684296, 33.5374822], [-117.6684119, 33.5374914], [-117.6683989, 33.5375005], [-117.6683823, 33.5375154], [-117.6683592, 33.5375285], [-117.6683309, 33.5375418], [-117.6682946, 33.5375554], [-117.6682594, 33.5375637], [-117.6682451, 33.5375661], [-117.668238, 33.5375707], [-117.6682475, 33.5375846], [-117.6684696, 33.5377179], [-117.668377, 33.5378249], [-117.6683252, 33.5377964], [-117.6682307, 33.5379079], [-117.668477, 33.5380524]]]}}, {"type": "Feature", "properties": {"name": "(unnamed)", "leisure": "pitch", "osmType": "way", "osmId": 256664358, "provenanceGrade": "B2", "statementClass": "documented", "source": "OpenStreetMap contributors, ODbL, retrieved 2026-07-29"}, "geometry": {"type": "Polygon", "coordinates": [[[-117.6640176, 33.5512601], [-117.6630782, 33.5512826], [-117.6629835, 33.5513361], [-117.6628416, 33.5516741], [-117.6630984, 33.5521135], [-117.6637473, 33.5522965], [-117.6639433, 33.552212], [-117.6640886, 33.5519557], [-117.6640784, 33.5513305], [-117.6640176, 33.5512601]]]}}, {"type": "Feature", "properties": {"name": "(unnamed)", "leisure": "pitch", "osmType": "way", "osmId": 256664359, "provenanceGrade": "B2", "statementClass": "documented", "source": "OpenStreetMap contributors, ODbL, retrieved 2026-07-29"}, "geometry": {"type": "Polygon", "coordinates": [[[-117.6671961, 33.5511813], [-117.6671919, 33.5506455], [-117.6671301, 33.5505994], [-117.6665064, 33.5505994], [-117.6664404, 33.5506721], [-117.6664787, 33.5508549], [-117.6665511, 33.5509737], [-117.6666383, 33.5510571], [-117.6668044, 33.5511618], [-117.6669683, 33.5512221], [-117.667111, 33.5512346], [-117.6671961, 33.5511813]]]}}, {"type": "Feature", "properties": {"name": "(unnamed)", "leisure": "pitch", "osmType": "way", "osmId": 256664360, "provenanceGrade": "B2", "statementClass": "documented", "source": "OpenStreetMap contributors, ODbL, retrieved 2026-07-29"}, "geometry": {"type": "Polygon", "coordinates": [[[-117.6673707, 33.5505071], [-117.6672919, 33.5505852], [-117.667294, 33.551215], [-117.6675623, 33.5512097], [-117.6679625, 33.5509205], [-117.6680242, 33.5508354], [-117.6680562, 33.5506899], [-117.6680647, 33.5505994], [-117.6680306, 33.5504841], [-117.6673707, 33.5505071]]]}}, {"type": "Feature", "properties": {"name": "Cougar Stadium", "leisure": "pitch", "osmType": "way", "osmId": 257380811, "provenanceGrade": "B2", "statementClass": "documented", "source": "OpenStreetMap contributors, ODbL, retrieved 2026-07-29"}, "geometry": {"type": "Polygon", "coordinates": [[[-117.6712478, 33.5441901], [-117.67091, 33.5438508], [-117.6699979, 33.5444818], [-117.6703358, 33.544821], [-117.6712478, 33.5441901]]]}}, {"type": "Feature", "properties": {"name": "(unnamed)", "leisure": "pitch", "osmType": "way", "osmId": 257380824, "provenanceGrade": "B2", "statementClass": "documented", "source": "OpenStreetMap contributors, ODbL, retrieved 2026-07-29"}, "geometry": {"type": "Polygon", "coordinates": [[[-117.6692176, 33.543268], [-117.6682735, 33.5427404], [-117.6676593, 33.5432188], [-117.6686839, 33.5438872], [-117.6692176, 33.543268]]]}}, {"type": "Feature", "properties": {"name": "(unnamed)", "leisure": "pitch", "osmType": "way", "osmId": 257380825, "provenanceGrade": "B2", "statementClass": "documented", "source": "OpenStreetMap contributors, ODbL, retrieved 2026-07-29"}, "geometry": {"type": "Polygon", "coordinates": [[[-117.668252, 33.5427382], [-117.6679436, 33.5425191], [-117.6678041, 33.5423872], [-117.6677263, 33.5423671], [-117.6674581, 33.5425571], [-117.6673776, 33.5427426], [-117.667332, 33.5428119], [-117.6676244, 33.5432031], [-117.668252, 33.5427382]]]}}, {"type": "Feature", "properties": {"name": "(unnamed)", "leisure": "pitch", "osmType": "way", "osmId": 257380827, "provenanceGrade": "B2", "statementClass": "documented", "source": "OpenStreetMap contributors, ODbL, retrieved 2026-07-29"}, "geometry": {"type": "Polygon", "coordinates": [[[-117.6692257, 33.5432546], [-117.6698265, 33.5424744], [-117.6688716, 33.5419289], [-117.6686436, 33.5419043], [-117.6683835, 33.5420205], [-117.6686678, 33.5423715], [-117.6685739, 33.5425683], [-117.6683084, 33.5427225], [-117.6692257, 33.5432546]]]}}, {"type": "Feature", "properties": {"name": "(unnamed)", "leisure": "pitch", "osmType": "way", "osmId": 257380829, "provenanceGrade": "B2", "statementClass": "documented", "source": "OpenStreetMap contributors, ODbL, retrieved 2026-07-29"}, "geometry": {"type": "Polygon", "coordinates": [[[-117.6682815, 33.5426934], [-117.6685578, 33.5425258], [-117.6686249, 33.5423693], [-117.6683352, 33.5420429], [-117.6681045, 33.5421234], [-117.6677934, 33.5423067], [-117.6679221, 33.5424587], [-117.6682815, 33.5426934]]]}}, {"type": "Feature", "properties": {"name": "(unnamed)", "leisure": "pitch", "osmType": "way", "osmId": 257380830, "provenanceGrade": "B2", "statementClass": "documented", "source": "OpenStreetMap contributors, ODbL, retrieved 2026-07-29"}, "geometry": {"type": "Polygon", "coordinates": [[[-117.6693115, 33.5432166], [-117.6698506, 33.5424878], [-117.6705024, 33.5429885], [-117.670658, 33.543335], [-117.6702116, 33.5437413], [-117.6693115, 33.5432166]]]}}, {"type": "Feature", "properties": {"name": "Bob Zamora Field", "leisure": "pitch", "osmType": "way", "osmId": 257380831, "provenanceGrade": "B2", "statementClass": "documented", "source": "OpenStreetMap contributors, ODbL, retrieved 2026-07-29"}, "geometry": {"type": "Polygon", "coordinates": [[[-117.6702009, 33.5438083], [-117.669297, 33.5432986], [-117.6692165, 33.543312], [-117.6686533, 33.5440207], [-117.6691334, 33.5443426], [-117.6696993, 33.544365], [-117.6698093, 33.5441593], [-117.6702009, 33.5438083]]]}}, {"type": "Feature", "properties": {"name": "Quad", "leisure": "park", "osmType": "way", "osmId": 444668117, "provenanceGrade": "B2", "statementClass": "documented", "source": "OpenStreetMap contributors, ODbL, retrieved 2026-07-29"}, "geometry": {"type": "Polygon", "coordinates": [[[-117.6650354, 33.554451], [-117.6649086, 33.5543356], [-117.6648065, 33.5544279], [-117.6645879, 33.5542664], [-117.6646885, 33.5541655], [-117.6647322, 33.5540854], [-117.6647716, 33.5540417], [-117.664859, 33.5539712], [-117.664945, 33.5539311], [-117.6649698, 33.5539068], [-117.6652948, 33.5541425], [-117.6652438, 33.5541947], [-117.6652467, 33.5542287], [-117.6650354, 33.554451]]]}}, {"type": "Feature", "properties": {"name": "Hill Top Park", "leisure": "park", "osmType": "way", "osmId": 492881902, "provenanceGrade": "B2", "statementClass": "documented", "source": "OpenStreetMap contributors, ODbL, retrieved 2026-07-29"}, "geometry": {"type": "Polygon", "coordinates": [[[-117.6393314, 33.564875], [-117.6392745, 33.564894], [-117.6392641, 33.5647045], [-117.6392533, 33.5646403], [-117.6392191, 33.5645277], [-117.6392088, 33.5644789], [-117.6391863, 33.5644495], [-117.6391595, 33.5644164], [-117.6391373, 33.5643947], [-117.6390891, 33.5643768], [-117.638967, 33.5643328], [-117.6392348, 33.5642692], [-117.6392554, 33.5643118], [-117.6393061, 33.5643766], [-117.6393955, 33.5644048], [-117.6394799, 33.5643879], [-117.6395794, 33.5643541], [-117.6397026, 33.5643485], [-117.6397633, 33.5643499], [-117.6398257, 33.5643274], [-117.6398763, 33.5642979], [-117.6399539, 33.5642754], [-117.6400568, 33.5642361], [-117.6401311, 33.5642122], [-117.6402179, 33.5642171], [-117.6402795, 33.5642455], [-117.6403213, 33.5643154], [-117.6403058, 33.5643791], [-117.6402745, 33.564416], [-117.6402458, 33.564461], [-117.6402106, 33.5645133], [-117.6401728, 33.5645596], [-117.6401127, 33.5645967], [-117.6400438, 33.5646375], [-117.6399748, 33.5646681], [-117.6399045, 33.5646779], [-117.6398553, 33.5646974], [-117.6397908, 33.5647179], [-117.6396959, 33.5647472], [-117.6396373, 33.5647579], [-117.6395753, 33.5647735], [-117.6395319, 33.5648096], [-117.6394741, 33.5648356], [-117.6394151, 33.5648504], [-117.6393314, 33.564875]]]}}, {"type": "Feature", "properties": {"name": "Mission Hills Park", "leisure": "park", "osmType": "way", "osmId": 493151489, "provenanceGrade": "B2", "statementClass": "documented", "source": "OpenStreetMap contributors, ODbL, retrieved 2026-07-29"}, "geometry": {"type": "Polygon", "coordinates": [[[-117.6293943, 33.5367592], [-117.6292944, 33.5367153], [-117.629361, 33.5365754], [-117.6293915, 33.5364968], [-117.6294498, 33.5363523], [-117.6294595, 33.5362852], [-117.6294997, 33.53618], [-117.6295607, 33.5360783], [-117.629644, 33.5359742], [-117.6297202, 33.5359326], [-117.6297868, 33.5359129], [-117.6298978, 33.5359245], [-117.6299963, 33.5359337], [-117.6300864, 33.5359881], [-117.6301419, 33.5360517], [-117.6301669, 33.5361453], [-117.6301738, 33.5361869], [-117.630171, 33.5362563], [-117.630135, 33.5363164], [-117.6301017, 33.5363719], [-117.6300295, 33.5364147], [-117.6299671, 33.5364436], [-117.6298978, 33.5364714], [-117.6298576, 33.536469], [-117.6298312, 33.5364725], [-117.6298298, 33.5365095], [-117.6298194, 33.5365332], [-117.6297875, 33.536554], [-117.6297528, 33.536565], [-117.6297154, 33.5365719], [-117.6296939, 33.5365737], [-117.6296793, 33.5366037], [-117.6296412, 33.5366459], [-117.6295954, 33.5366627], [-117.6293943, 33.5367592]]]}}, {"type": "Feature", "properties": {"name": "(unnamed)", "leisure": "playground", "osmType": "way", "osmId": 504941243, "provenanceGrade": "B2", "statementClass": "documented", "source": "OpenStreetMap contributors, ODbL, retrieved 2026-07-29"}, "geometry": {"type": "Polygon", "coordinates": [[[-117.6695817, 33.5692124], [-117.6695531, 33.5692243], [-117.6695198, 33.5692233], [-117.6694805, 33.5692193], [-117.6694448, 33.5691975], [-117.6694198, 33.5691678], [-117.6694079, 33.5691271], [-117.6694114, 33.5690924], [-117.6694091, 33.5690616], [-117.6693948, 33.5690339], [-117.6693948, 33.5690041], [-117.6694174, 33.5689734], [-117.6694579, 33.5689565], [-117.6694948, 33.5689555], [-117.6695305, 33.5689704], [-117.6695519, 33.5689932], [-117.6695596, 33.5690046], [-117.6695852, 33.5690428], [-117.6696209, 33.5690775], [-117.6696495, 33.5690993], [-117.6696828, 33.5691083], [-117.6697114, 33.5691291], [-117.6697257, 33.5691549], [-117.6697206, 33.5691704], [-117.6697162, 33.5691836], [-117.6696924, 33.5692094], [-117.669665, 33.5692203], [-117.6696317, 33.5692223], [-117.6696067, 33.5692134], [-117.6695817, 33.5692124]]]}}, {"type": "Feature", "properties": {"name": "Chaparral Park", "leisure": "park", "osmType": "way", "osmId": 533289806, "provenanceGrade": "B2", "statementClass": "documented", "source": "OpenStreetMap contributors, ODbL, retrieved 2026-07-29"}, "geometry": {"type": "Polygon", "coordinates": [[[-117.6337622, 33.5622509], [-117.6337523, 33.5621741], [-117.633779, 33.5620355], [-117.6335046, 33.5619917], [-117.6337513, 33.5609146], [-117.6337413, 33.5605004], [-117.6351055, 33.5600276], [-117.6352725, 33.5602515], [-117.6360882, 33.5604993], [-117.6359787, 33.5607963], [-117.6357066, 33.5606916], [-117.6354363, 33.5606314], [-117.6353317, 33.5606731], [-117.6352658, 33.5607303], [-117.6350588, 33.5608214], [-117.6343007, 33.5610437], [-117.6342383, 33.5610336], [-117.6341518, 33.561042], [-117.6340833, 33.5610705], [-117.634033, 33.5611527], [-117.6340511, 33.5612097], [-117.6340974, 33.5612902], [-117.6341618, 33.5613271], [-117.6339183, 33.5621772], [-117.6337622, 33.5622509]]]}}, {"type": "Feature", "properties": {"name": "Flintridge park", "leisure": "park", "osmType": "way", "osmId": 544220841, "provenanceGrade": "B2", "statementClass": "documented", "source": "OpenStreetMap contributors, ODbL, retrieved 2026-07-29"}, "geometry": {"type": "Polygon", "coordinates": [[[-117.6395431, 33.5583462], [-117.6395553, 33.5584034], [-117.6396219, 33.558425], [-117.6396705, 33.5585353], [-117.6397781, 33.5585778], [-117.6398994, 33.5585483], [-117.6400478, 33.5586215], [-117.6401189, 33.5586202], [-117.6401251, 33.5582948], [-117.6399644, 33.5582736], [-117.6397755, 33.5582736], [-117.6395352, 33.5583162], [-117.6395333, 33.5583123], [-117.6395431, 33.5583462]]]}}, {"type": "Feature", "properties": {"name": "Frog Park", "leisure": "park", "osmType": "way", "osmId": 544221180, "provenanceGrade": "B2", "statementClass": "documented", "source": "OpenStreetMap contributors, ODbL, retrieved 2026-07-29"}, "geometry": {"type": "Polygon", "coordinates": [[[-117.6362197, 33.5581317], [-117.6360481, 33.5581413], [-117.6359825, 33.5581497], [-117.63591, 33.5580897], [-117.6358961, 33.5578999], [-117.6359003, 33.5578138], [-117.6358978, 33.5577199], [-117.6358929, 33.557626], [-117.635949, 33.5576254], [-117.635994, 33.5576244], [-117.6360039, 33.5576685], [-117.6360455, 33.557755], [-117.6361157, 33.5578726], [-117.6361754, 33.5579611], [-117.6362236, 33.5580496], [-117.6362531, 33.5581253], [-117.6362517, 33.5581257], [-117.6362197, 33.5581317]]]}}, {"type": "Feature", "properties": {"name": "Bluff Top Park", "leisure": "park", "osmType": "way", "osmId": 544221713, "provenanceGrade": "B2", "statementClass": "documented", "source": "OpenStreetMap contributors, ODbL, retrieved 2026-07-29"}, "geometry": {"type": "Polygon", "coordinates": [[[-117.6432404, 33.5687186], [-117.6435169, 33.5685381], [-117.6436711, 33.5683981], [-117.6438101, 33.5682497], [-117.6438653, 33.5682736], [-117.6439042, 33.5683051], [-117.6443342, 33.5685354], [-117.644152, 33.5687212], [-117.6438886, 33.5689456], [-117.6437962, 33.569088], [-117.6437317, 33.5692138], [-117.6436332, 33.5693689], [-117.643535, 33.5694746], [-117.6434151, 33.569565], [-117.6433042, 33.5696349], [-117.6431719, 33.5696643], [-117.6430204, 33.5697085], [-117.6429261, 33.5696517], [-117.6428077, 33.5696097], [-117.642711, 33.5696171], [-117.64263, 33.5696052], [-117.6425571, 33.5695816], [-117.6425038, 33.5695762], [-117.6424654, 33.5695869], [-117.6424214, 33.5696089], [-117.6423489, 33.5696246], [-117.6422741, 33.5696302], [-117.6422325, 33.5696296], [-117.6421965, 33.5696112], [-117.6421745, 33.5695816], [-117.6421727, 33.5694843], [-117.6421685, 33.5694132], [-117.6424054, 33.5694196], [-117.6425489, 33.5694234], [-117.6426844, 33.569454], [-117.6427324, 33.5694623], [-117.6427817, 33.5694637], [-117.6428315, 33.5694564], [-117.6428778, 33.5694394], [-117.6429244, 33.5694058], [-117.6429617, 33.5693575], [-117.6429671, 33.56931], [-117.6429654, 33.5692634], [-117.6429458, 33.5691797], [-117.6428914, 33.5690032], [-117.6428707, 33.5689114], [-117.6428768, 33.5688912], [-117.6428904, 33.5688741], [-117.6429956, 33.5688264], [-117.6432404, 33.5687186]]]}}, {"type": "Feature", "properties": {"name": "Dogwood Park", "leisure": "park", "osmType": "way", "osmId": 544913694, "provenanceGrade": "B2", "statementClass": "documented", "source": "OpenStreetMap contributors, ODbL, retrieved 2026-07-29"}, "geometry": {"type": "Polygon", "coordinates": [[[-117.6439586, 33.5672245], [-117.6439277, 33.5669937], [-117.6439169, 33.5669733], [-117.6439014, 33.5669588], [-117.6438653, 33.5669416], [-117.643819, 33.5669439], [-117.6436646, 33.5669574], [-117.6435823, 33.5669511], [-117.6435046, 33.5669322], [-117.6434246, 33.5669011], [-117.6433493, 33.5668603], [-117.6432453, 33.566774], [-117.6431762, 33.5667297], [-117.6431082, 33.5667063], [-117.6430433, 33.5666946], [-117.6429707, 33.5666896], [-117.6429288, 33.5667131], [-117.6431477, 33.5670602], [-117.6429381, 33.5671583], [-117.6427419, 33.5672504], [-117.6425782, 33.5673248], [-117.6424078, 33.5674067], [-117.6422741, 33.5674688], [-117.6419469, 33.5676181], [-117.6416469, 33.5677653], [-117.6416219, 33.5677701], [-117.6415969, 33.567766], [-117.6414322, 33.5675851], [-117.6409839, 33.5678145], [-117.6411269, 33.5679743], [-117.6412364, 33.5681403], [-117.6413102, 33.5681535], [-117.6414498, 33.5680793], [-117.6415384, 33.5680632], [-117.6416076, 33.5680698], [-117.6415872, 33.5678939], [-117.6419992, 33.5678324], [-117.6420662, 33.5677426], [-117.6421581, 33.5677208], [-117.6422189, 33.5677293], [-117.6424493, 33.567604], [-117.642552, 33.5675515], [-117.6426809, 33.5675667], [-117.6427104, 33.5675104], [-117.6427841, 33.567483], [-117.6428812, 33.5674863], [-117.6429334, 33.5674328], [-117.6431054, 33.5673378], [-117.6431939, 33.5673146], [-117.6433659, 33.5673018], [-117.6434056, 33.5672408], [-117.6434516, 33.5672087], [-117.6435736, 33.5672077], [-117.6436077, 33.5672399], [-117.6438602, 33.5672271], [-117.6439034, 33.5672262], [-117.6439586, 33.5672245]]]}}, {"type": "Feature", "properties": {"name": "(unnamed)", "leisure": "park", "osmType": "way", "osmId": 596644692, "provenanceGrade": "B2", "statementClass": "documented", "source": "OpenStreetMap contributors, ODbL, retrieved 2026-07-29"}, "geometry": {"type": "Polygon", "coordinates": [[[-117.646712, 33.5459917], [-117.6460305, 33.5452184], [-117.6458803, 33.5452697], [-117.6458773, 33.5454305], [-117.6460212, 33.5455686], [-117.6462614, 33.5457795], [-117.6464748, 33.5460706], [-117.646586, 33.546039], [-117.646712, 33.5459917]]]}}, {"type": "Feature", "properties": {"name": "Artisan park", "leisure": "park", "osmType": "way", "osmId": 651640636, "provenanceGrade": "B2", "statementClass": "documented", "source": "OpenStreetMap contributors, ODbL, retrieved 2026-07-29"}, "geometry": {"type": "Polygon", "coordinates": [[[-117.6389998, 33.5725631], [-117.6391694, 33.572173], [-117.6393573, 33.5722506], [-117.6394032, 33.5722788], [-117.6395491, 33.5723779], [-117.6395127, 33.5724425], [-117.6394248, 33.5724916], [-117.6393086, 33.5725186], [-117.6389998, 33.5725631]]]}}, {"type": "Feature", "properties": {"name": "(unnamed)", "leisure": "pitch", "osmType": "way", "osmId": 655744019, "provenanceGrade": "B2", "statementClass": "documented", "source": "OpenStreetMap contributors, ODbL, retrieved 2026-07-29"}, "geometry": {"type": "Polygon", "coordinates": [[[-117.6480791, 33.5262405], [-117.6480697, 33.526302], [-117.6480161, 33.526368], [-117.6479517, 33.5263937], [-117.6478659, 33.5263971], [-117.6477948, 33.5263792], [-117.6477532, 33.52633], [-117.647599, 33.5259655], [-117.6476204, 33.525894], [-117.6476647, 33.5258425], [-117.6477304, 33.5258146], [-117.6478149, 33.5258123], [-117.6478846, 33.5258347], [-117.6479356, 33.5258783], [-117.6480791, 33.5262405]]]}}, {"type": "Feature", "properties": {"name": "(unnamed)", "leisure": "pitch", "osmType": "way", "osmId": 788036358, "provenanceGrade": "B2", "statementClass": "documented", "source": "OpenStreetMap contributors, ODbL, retrieved 2026-07-29"}, "geometry": {"type": "Polygon", "coordinates": [[[-117.6558293, 33.5715339], [-117.6558398, 33.5714129], [-117.6561021, 33.5714432], [-117.6560869, 33.5715583], [-117.6558293, 33.5715339]]]}}, {"type": "Feature", "properties": {"name": "(unnamed)", "leisure": "playground", "osmType": "way", "osmId": 788036359, "provenanceGrade": "B2", "statementClass": "documented", "source": "OpenStreetMap contributors, ODbL, retrieved 2026-07-29"}, "geometry": {"type": "Polygon", "coordinates": [[[-117.655622, 33.5718978], [-117.6555962, 33.5718842], [-117.6555365, 33.5718373], [-117.655485, 33.5717963], [-117.655437, 33.5717573], [-117.6554171, 33.571729], [-117.6554101, 33.5717007], [-117.65543, 33.5716637], [-117.6554651, 33.571649], [-117.6554955, 33.5716461], [-117.6555283, 33.5716578], [-117.6555482, 33.5716724], [-117.6555576, 33.5716978], [-117.6558258, 33.5716998], [-117.6558503, 33.5716763], [-117.6558972, 33.5716617], [-117.6559393, 33.5716773], [-117.6559592, 33.571691], [-117.6559674, 33.5717124], [-117.6559639, 33.5717427], [-117.6559557, 33.5717632], [-117.6559019, 33.5717973], [-117.6558351, 33.5718451], [-117.6557766, 33.5718764], [-117.6557414, 33.5718998], [-117.6556969, 33.5719115], [-117.6556606, 33.5719124], [-117.655622, 33.5718978]]]}}, {"type": "Feature", "properties": {"name": "(unnamed)", "leisure": "pitch", "osmType": "way", "osmId": 788046775, "provenanceGrade": "B2", "statementClass": "documented", "source": "OpenStreetMap contributors, ODbL, retrieved 2026-07-29"}, "geometry": {"type": "Polygon", "coordinates": [[[-117.6563876, 33.5724596], [-117.6563593, 33.5722643], [-117.6563577, 33.5722527], [-117.6566085, 33.5722275], [-117.6566384, 33.5724345], [-117.6563876, 33.5724596]]]}}, {"type": "Feature", "properties": {"name": "(unnamed)", "leisure": "pitch", "osmType": "way", "osmId": 789202814, "provenanceGrade": "B2", "statementClass": "documented", "source": "OpenStreetMap contributors, ODbL, retrieved 2026-07-29"}, "geometry": {"type": "Polygon", "coordinates": [[[-117.6691445, 33.5379471], [-117.6692302, 33.5379423], [-117.6692382, 33.5378672], [-117.669236, 33.5378116], [-117.6692287, 33.5377668], [-117.6692041, 33.5377232], [-117.6691801, 33.5377039], [-117.6691612, 33.5377008], [-117.6691387, 33.5377026], [-117.6691278, 33.5377093], [-117.6691089, 33.5377269], [-117.6691002, 33.5377565], [-117.669093, 33.5377916], [-117.6690952, 33.5378358], [-117.6691031, 33.5378745], [-117.6691133, 33.5378951], [-117.6691307, 33.5379265], [-117.6691445, 33.5379471]]]}}, {"type": "Feature", "properties": {"name": "(unnamed)", "leisure": "playground", "osmType": "way", "osmId": 789202815, "provenanceGrade": "B2", "statementClass": "documented", "source": "OpenStreetMap contributors, ODbL, retrieved 2026-07-29"}, "geometry": {"type": "Polygon", "coordinates": [[[-117.6690944, 33.5376766], [-117.6692345, 33.5376688], [-117.6692483, 33.5376433], [-117.6692549, 33.5376228], [-117.6692694, 33.5376088], [-117.6692825, 33.5375901], [-117.6692861, 33.5375683], [-117.6692817, 33.537552], [-117.6692745, 33.5375399], [-117.6692585, 33.5375205], [-117.6692389, 33.5375265], [-117.6692215, 33.5375302], [-117.6691924, 33.5375362], [-117.6691707, 33.5375429], [-117.6691511, 33.5375465], [-117.669138, 33.5375447], [-117.669122, 33.5375447], [-117.6691024, 33.5375508], [-117.6690879, 33.537558], [-117.6690792, 33.5375677], [-117.6690719, 33.5375792], [-117.6690683, 33.5375967], [-117.669069, 33.5376107], [-117.6690712, 33.5376173], [-117.6690705, 33.5376252], [-117.6690705, 33.5376373], [-117.6690748, 33.5376518], [-117.6690944, 33.5376766]]]}}, {"type": "Feature", "properties": {"name": "(unnamed)", "leisure": "park", "osmType": "way", "osmId": 789202830, "provenanceGrade": "B2", "statementClass": "documented", "source": "OpenStreetMap contributors, ODbL, retrieved 2026-07-29"}, "geometry": {"type": "Polygon", "coordinates": [[[-117.6671721, 33.5355877], [-117.667125, 33.535555], [-117.6670973, 33.5355357], [-117.6670258, 33.5354919], [-117.6669765, 33.5354607], [-117.6669164, 33.5354119], [-117.6668632, 33.535384], [-117.6668845, 33.5353535], [-117.6669385, 33.5352927], [-117.6669925, 33.5352343], [-117.6670784, 33.5352755], [-117.667191, 33.5353409], [-117.6672648, 33.5353808], [-117.6672838, 33.5353903], [-117.667277, 33.5354258], [-117.6672686, 33.5354613], [-117.6672686, 33.5354956], [-117.6672686, 33.535512], [-117.6672709, 33.5355336], [-117.6671721, 33.5355877]]]}}, {"type": "Feature", "properties": {"name": "(unnamed)", "leisure": "playground", "osmType": "way", "osmId": 789202832, "provenanceGrade": "B2", "statementClass": "documented", "source": "OpenStreetMap contributors, ODbL, retrieved 2026-07-29"}, "geometry": {"type": "Polygon", "coordinates": [[[-117.664037, 33.5454316], [-117.6640647, 33.5454134], [-117.6640964, 33.5453994], [-117.6641251, 33.5453895], [-117.6641657, 33.5453854], [-117.6642112, 33.5453912], [-117.6642419, 33.5454068], [-117.6642667, 33.5454266], [-117.6642785, 33.5454365], [-117.6642835, 33.5454506], [-117.6642845, 33.5454638], [-117.6642815, 33.545472], [-117.6642706, 33.5454811], [-117.6642597, 33.5454885], [-117.6642429, 33.5454984], [-117.6642142, 33.5455059], [-117.6641785, 33.5455158], [-117.6641429, 33.5455166], [-117.6641053, 33.5455092], [-117.6640835, 33.5454968], [-117.6640587, 33.5454819], [-117.6640419, 33.5454679], [-117.664033, 33.5454613], [-117.664033, 33.5454539], [-117.6640449, 33.5454448], [-117.664037, 33.5454316]]]}}, {"type": "Feature", "properties": {"name": "(unnamed)", "leisure": "playground", "osmType": "way", "osmId": 789214951, "provenanceGrade": "B2", "statementClass": "documented", "source": "OpenStreetMap contributors, ODbL, retrieved 2026-07-29"}, "geometry": {"type": "Polygon", "coordinates": [[[-117.6589645, 33.5722495], [-117.659003, 33.5721292], [-117.6592228, 33.5721853], [-117.6591835, 33.5723083], [-117.6590965, 33.5722905], [-117.6590982, 33.5722789], [-117.6589645, 33.5722495]]]}}, {"type": "Feature", "properties": {"name": "(unnamed)", "leisure": "playground", "osmType": "way", "osmId": 790212406, "provenanceGrade": "B2", "statementClass": "documented", "source": "OpenStreetMap contributors, ODbL, retrieved 2026-07-29"}, "geometry": {"type": "Polygon", "coordinates": [[[-117.6481884, 33.5264739], [-117.6481811, 33.5264831], [-117.6481756, 33.5264953], [-117.6481729, 33.5265197], [-117.6481701, 33.5265304], [-117.6481948, 33.5265487], [-117.6482122, 33.5265594], [-117.6482296, 33.5265724], [-117.648247, 33.5265762], [-117.648269, 33.5265716], [-117.6482873, 33.5265731], [-117.6482937, 33.5265793], [-117.6482928, 33.526596], [-117.6483029, 33.5266182], [-117.6483321, 33.5266479], [-117.648345, 33.5266601], [-117.6483596, 33.5266571], [-117.6483907, 33.5266373], [-117.6484054, 33.5266228], [-117.6484109, 33.5266098], [-117.6483999, 33.5265785], [-117.6483834, 33.5265564], [-117.6483779, 33.5265449], [-117.6483642, 33.5265388], [-117.6483413, 33.5265419], [-117.6483312, 33.5265434], [-117.6483029, 33.5265304], [-117.6482955, 33.5265197], [-117.6482882, 33.5265098], [-117.6482827, 33.5264991], [-117.6482736, 33.5264938], [-117.6482552, 33.5264884], [-117.6482415, 33.5264923], [-117.648226, 33.5264869], [-117.6482058, 33.5264762], [-117.6481976, 33.5264686], [-117.6481884, 33.5264739]]]}}, {"type": "Feature", "properties": {"name": "(unnamed)", "leisure": "pitch", "osmType": "way", "osmId": 790212412, "provenanceGrade": "B2", "statementClass": "documented", "source": "OpenStreetMap contributors, ODbL, retrieved 2026-07-29"}, "geometry": {"type": "Polygon", "coordinates": [[[-117.6481656, 33.5270271], [-117.647887, 33.52684], [-117.6481166, 33.5265698], [-117.6484137, 33.5267583], [-117.6481656, 33.5270271]]]}}, {"type": "Feature", "properties": {"name": "Stoneridge Park", "leisure": "park", "osmType": "way", "osmId": 790212417, "provenanceGrade": "B2", "statementClass": "documented", "source": "OpenStreetMap contributors, ODbL, retrieved 2026-07-29"}, "geometry": {"type": "Polygon", "coordinates": [[[-117.6481756, 33.5271205], [-117.6484215, 33.5268426], [-117.6486451, 33.5265902], [-117.648734, 33.5264721], [-117.6488062, 33.5264073], [-117.6487256, 33.52631], [-117.6486715, 33.5262568], [-117.6486256, 33.5262243], [-117.6484979, 33.5261398], [-117.6483701, 33.5260564], [-117.6482451, 33.5259847], [-117.6481909, 33.5260032], [-117.6481909, 33.5261259], [-117.6481742, 33.5262348], [-117.6481228, 33.5263123], [-117.6480492, 33.5264119], [-117.6479478, 33.5265346], [-117.647827, 33.5266886], [-117.6477617, 33.5267847], [-117.6477492, 33.5268322], [-117.6477464, 33.5268704], [-117.6479478, 33.5269908], [-117.6481756, 33.5271205]]]}}, {"type": "Feature", "properties": {"name": "(unnamed)", "leisure": "pitch", "osmType": "way", "osmId": 790212418, "provenanceGrade": "B2", "statementClass": "documented", "source": "OpenStreetMap contributors, ODbL, retrieved 2026-07-29"}, "geometry": {"type": "Polygon", "coordinates": [[[-117.6665777, 33.5278928], [-117.6666273, 33.5278796], [-117.6667244, 33.5276169], [-117.6667046, 33.5275805], [-117.6665876, 33.5275524], [-117.6665421, 33.5275657], [-117.666437, 33.5278234], [-117.6664449, 33.5278548], [-117.6665777, 33.5278928]]]}}, {"type": "Feature", "properties": {"name": "(unnamed)", "leisure": "pitch", "osmType": "way", "osmId": 790212421, "provenanceGrade": "B2", "statementClass": "documented", "source": "OpenStreetMap contributors, ODbL, retrieved 2026-07-29"}, "geometry": {"type": "Polygon", "coordinates": [[[-117.6664667, 33.528106], [-117.6665381, 33.5279375], [-117.666431, 33.5279011], [-117.6663577, 33.528073], [-117.6664667, 33.528106]]]}}, {"type": "Feature", "properties": {"name": "Thalia Park", "leisure": "park", "osmType": "way", "osmId": 819217792, "provenanceGrade": "B2", "statementClass": "documented", "source": "OpenStreetMap contributors, ODbL, retrieved 2026-07-29"}, "geometry": {"type": "Polygon", "coordinates": [[[-117.6387603, 33.5731849], [-117.6388029, 33.5731955], [-117.6388291, 33.5732089], [-117.638876, 33.5732418], [-117.6389102, 33.5732664], [-117.6389491, 33.5732893], [-117.6390001, 33.573324], [-117.6390278, 33.5733538], [-117.6390564, 33.5733938], [-117.6390758, 33.5734312], [-117.6390993, 33.5734424], [-117.6391161, 33.5734497], [-117.6392274, 33.5733178], [-117.6391989, 33.5733114], [-117.6391653, 33.5732994], [-117.6391375, 33.573285], [-117.6391125, 33.5732652], [-117.6391013, 33.5732515], [-117.6390907, 33.5732247], [-117.6390827, 33.5731919], [-117.6390787, 33.5731519], [-117.639072, 33.5731226], [-117.6390655, 33.57309], [-117.6390532, 33.5730314], [-117.6390738, 33.5730287], [-117.6390716, 33.5729986], [-117.6390704, 33.5729669], [-117.6390702, 33.5729569], [-117.6389739, 33.5729966], [-117.6389069, 33.573034], [-117.6388512, 33.5730725], [-117.638813, 33.5731055], [-117.6387768, 33.573134], [-117.6387647, 33.5731692], [-117.6387603, 33.5731849]]]}}, {"type": "Feature", "properties": {"name": "Cherry Plunge Park", "leisure": "park", "osmType": "way", "osmId": 820505056, "provenanceGrade": "B2", "statementClass": "documented", "source": "OpenStreetMap contributors, ODbL, retrieved 2026-07-29"}, "geometry": {"type": "Polygon", "coordinates": [[[-117.6350639, 33.5490511], [-117.6351205, 33.5490238], [-117.6351304, 33.5490067], [-117.6351436, 33.5489804], [-117.6352472, 33.5488724], [-117.6355312, 33.5485897], [-117.6355686, 33.5485907], [-117.6356015, 33.5485657], [-117.6355978, 33.5485272], [-117.6355932, 33.5484965], [-117.635286, 33.5482033], [-117.6352034, 33.5481829], [-117.6351234, 33.548206], [-117.6348543, 33.5484458], [-117.6347141, 33.5485925], [-117.6346009, 33.5487185], [-117.6345986, 33.5487469], [-117.6346229, 33.5488326], [-117.6349979, 33.5490477], [-117.6350639, 33.5490511]]]}}, {"type": "Feature", "properties": {"name": "(unnamed)", "leisure": "park", "osmType": "way", "osmId": 820505057, "provenanceGrade": "B2", "statementClass": "documented", "source": "OpenStreetMap contributors, ODbL, retrieved 2026-07-29"}, "geometry": {"type": "Polygon", "coordinates": [[[-117.6353917, 33.5449249], [-117.6354387, 33.5449151], [-117.6354833, 33.5449189], [-117.6355013, 33.5449274], [-117.6355137, 33.5449389], [-117.6355321, 33.5449484], [-117.6356305, 33.5449735], [-117.6357197, 33.5450074], [-117.6357836, 33.545041], [-117.6358427, 33.5450776], [-117.6359139, 33.5451359], [-117.6359793, 33.5451991], [-117.636021, 33.5452623], [-117.6360587, 33.5453309], [-117.6360856, 33.5453992], [-117.6361056, 33.5454709], [-117.6361227, 33.5454849], [-117.6361304, 33.5454967], [-117.6361312, 33.5455768], [-117.636128, 33.5456424], [-117.6361189, 33.5456935], [-117.636103, 33.5457434], [-117.6360851, 33.5457519], [-117.6360773, 33.545761], [-117.6360454, 33.5458279], [-117.6360054, 33.5458914], [-117.6359594, 33.5459469], [-117.6359034, 33.546002], [-117.6358399, 33.5460516], [-117.6357678, 33.5460984], [-117.6357523, 33.5461271], [-117.6355744, 33.5462292], [-117.6355425, 33.5462413], [-117.6355072, 33.5462484], [-117.6354756, 33.5462436], [-117.6354464, 33.5462251], [-117.6354314, 33.5462021], [-117.6354223, 33.5461569], [-117.6354342, 33.5461273], [-117.6354231, 33.5460857], [-117.6354074, 33.5457879], [-117.6353968, 33.545777], [-117.6353897, 33.5457661], [-117.6353771, 33.5453618], [-117.6353899, 33.5453424], [-117.635385, 33.5450908], [-117.6353649, 33.5450687], [-117.6353604, 33.5449979], [-117.6353618, 33.5449741], [-117.6353683, 33.5449531], [-117.6353917, 33.5449249]]]}}, {"type": "Feature", "properties": {"name": "Pleasanton Park", "leisure": "park", "osmType": "way", "osmId": 831607515, "provenanceGrade": "B2", "statementClass": "documented", "source": "OpenStreetMap contributors, ODbL, retrieved 2026-07-29"}, "geometry": {"type": "Polygon", "coordinates": [[[-117.6358071, 33.57191], [-117.635813, 33.5719564], [-117.6357622, 33.5719534], [-117.6357154, 33.5719232], [-117.635657, 33.5718614], [-117.6355932, 33.5718059], [-117.6354798, 33.5717047], [-117.635525, 33.5716479], [-117.6355981, 33.5715883], [-117.6356431, 33.5715221], [-117.6356682, 33.5714779], [-117.6356793, 33.5714058], [-117.6356736, 33.5713486], [-117.6356735, 33.5712982], [-117.6356936, 33.5712396], [-117.6357614, 33.5711929], [-117.6358027, 33.5711364], [-117.6358115, 33.5711019], [-117.635807, 33.5710382], [-117.635793, 33.5709652], [-117.6357217, 33.5708933], [-117.6357753, 33.5708341], [-117.6358031, 33.5708562], [-117.6358613, 33.5709034], [-117.6359661, 33.5708542], [-117.6360986, 33.5707943], [-117.6361269, 33.5707775], [-117.6361426, 33.5707582], [-117.6361437, 33.570735], [-117.6360393, 33.5705596], [-117.6360272, 33.5705411], [-117.6360177, 33.5705215], [-117.6360151, 33.5704994], [-117.6360193, 33.5704796], [-117.6363152, 33.5702193], [-117.6364269, 33.5703456], [-117.6364409, 33.5703923], [-117.6364584, 33.5704195], [-117.6364409, 33.5704691], [-117.6363931, 33.5705324], [-117.6363557, 33.570581], [-117.6363113, 33.5706433], [-117.6362786, 33.5706948], [-117.6362273, 33.5707561], [-117.6361162, 33.5709186], [-117.6361349, 33.5709643], [-117.6360972, 33.5709847], [-117.6360562, 33.5710236], [-117.6360457, 33.5710664], [-117.6360533, 33.5710985], [-117.6358618, 33.5712619], [-117.6358574, 33.5712961], [-117.6358664, 33.5713281], [-117.6359117, 33.5713821], [-117.6359512, 33.5714279], [-117.6358173, 33.5716246], [-117.6357453, 33.5717205], [-117.6358307, 33.5717554], [-117.6358584, 33.5718453], [-117.6358071, 33.57191]]]}}, {"type": "Feature", "properties": {"name": "(unnamed)", "leisure": "playground", "osmType": "way", "osmId": 921114178, "provenanceGrade": "B2", "statementClass": "documented", "source": "OpenStreetMap contributors, ODbL, retrieved 2026-07-29"}, "geometry": {"type": "Polygon", "coordinates": [[[-117.6261523, 33.5285787], [-117.6261803, 33.5285904], [-117.626207, 33.5286081], [-117.6262208, 33.528624], [-117.6262305, 33.5286408], [-117.6262519, 33.5286281], [-117.6262659, 33.5286285], [-117.6263009, 33.5286274], [-117.6263339, 33.5286168], [-117.6263615, 33.5285982], [-117.6263833, 33.528577], [-117.6263946, 33.5285514], [-117.626392, 33.5285471], [-117.6263999, 33.5285301], [-117.6264011, 33.5285084], [-117.6263945, 33.5284765], [-117.6263851, 33.528457], [-117.6263705, 33.5284406], [-117.6263487, 33.5284221], [-117.6263191, 33.5284116], [-117.6262729, 33.5283947], [-117.6262214, 33.5283826], [-117.6261762, 33.5284847], [-117.6261475, 33.528575], [-117.6261523, 33.5285787]]]}}, {"type": "Feature", "properties": {"name": "Wagsdale Field", "leisure": "park", "osmType": "way", "osmId": 961235439, "provenanceGrade": "B2", "statementClass": "documented", "source": "OpenStreetMap contributors, ODbL, retrieved 2026-07-29"}, "geometry": {"type": "Polygon", "coordinates": [[[-117.643701, 33.5574698], [-117.6444252, 33.5574038], [-117.6445593, 33.558099], [-117.6436339, 33.5581627], [-117.6435835, 33.5581464], [-117.643533, 33.5581131], [-117.6435436, 33.5578769], [-117.6435769, 33.5578492], [-117.6436031, 33.557814], [-117.6436337, 33.5577719], [-117.6436635, 33.5577268], [-117.6437037, 33.5576296], [-117.6437023, 33.5575458], [-117.643701, 33.5574698]]]}}, {"type": "Feature", "properties": {"name": "Oso Grande Park", "leisure": "park", "osmType": "way", "osmId": 961722920, "provenanceGrade": "B2", "statementClass": "documented", "source": "OpenStreetMap contributors, ODbL, retrieved 2026-07-29"}, "geometry": {"type": "Polygon", "coordinates": [[[-117.640022, 33.54277], [-117.6399227, 33.5416231], [-117.639904, 33.5415807], [-117.6398664, 33.5415605], [-117.6396143, 33.5415181], [-117.6393407, 33.5414912], [-117.6391529, 33.5414376], [-117.638874, 33.5413012], [-117.6386809, 33.5412364], [-117.6385414, 33.541138], [-117.6380935, 33.5406685], [-117.6380506, 33.5406417], [-117.6379754, 33.5406283], [-117.6374283, 33.5408742], [-117.6373076, 33.5409033], [-117.6372057, 33.5409189], [-117.6370474, 33.5409256], [-117.6368918, 33.5409055], [-117.6368114, 33.5408876], [-117.636747, 33.5408876], [-117.6367121, 33.5409323], [-117.6366665, 33.5410352], [-117.6366397, 33.5411537], [-117.6366424, 33.5412386], [-117.6366665, 33.5413482], [-117.6367148, 33.5414577], [-117.6367819, 33.5415628], [-117.6368141, 33.5416343], [-117.6368382, 33.541726], [-117.6368742, 33.5418431], [-117.6368803, 33.5419009], [-117.6368772, 33.5419304], [-117.6370282, 33.5419278], [-117.6372408, 33.5419304], [-117.6374118, 33.5419548], [-117.6376075, 33.54201], [-117.6378216, 33.542105], [-117.6380157, 33.5421936], [-117.6380789, 33.5422437], [-117.6383192, 33.5423554], [-117.638407, 33.5424209], [-117.6385734, 33.5425878], [-117.6386673, 33.5427265], [-117.638692, 33.5428716], [-117.6386981, 33.542946], [-117.640022, 33.54277]]]}}, {"type": "Feature", "properties": {"name": "(unnamed)", "leisure": "playground", "osmType": "way", "osmId": 964361720, "provenanceGrade": "B2", "statementClass": "documented", "source": "OpenStreetMap contributors, ODbL, retrieved 2026-07-29"}, "geometry": {"type": "Polygon", "coordinates": [[[-117.6358306, 33.5454175], [-117.6358253, 33.5452855], [-117.6359174, 33.5452836], [-117.6359377, 33.545291], [-117.6359536, 33.5452999], [-117.6359687, 33.5453128], [-117.6359775, 33.5453249], [-117.6359815, 33.5453386], [-117.6359842, 33.5453493], [-117.6359811, 33.5453629], [-117.6359775, 33.5453758], [-117.6359643, 33.5453909], [-117.6359519, 33.5454024], [-117.6359315, 33.5454127], [-117.635912, 33.5454178], [-117.6358306, 33.5454175]]]}}, {"type": "Feature", "properties": {"name": "(unnamed)", "leisure": "playground", "osmType": "way", "osmId": 964365766, "provenanceGrade": "B2", "statementClass": "documented", "source": "OpenStreetMap contributors, ODbL, retrieved 2026-07-29"}, "geometry": {"type": "Polygon", "coordinates": [[[-117.6338796, 33.5567616], [-117.6338552, 33.5567806], [-117.6338374, 33.5567988], [-117.633815, 33.556809], [-117.6337881, 33.5568137], [-117.6337556, 33.556806], [-117.6337368, 33.5567942], [-117.6337241, 33.5567743], [-117.633719, 33.556751], [-117.633719, 33.5567298], [-117.6337108, 33.5567133], [-117.6336976, 33.5566947], [-117.6336895, 33.5566819], [-117.6336885, 33.556662], [-117.6336936, 33.5566455], [-117.6337027, 33.5566358], [-117.6337159, 33.5566277], [-117.6337368, 33.5566239], [-117.6337561, 33.5566252], [-117.6337728, 33.5566311], [-117.6337866, 33.5566472], [-117.6338099, 33.5566752], [-117.6338298, 33.5566896], [-117.6338496, 33.5566976], [-117.6338689, 33.5567031], [-117.6338836, 33.5567091], [-117.6338933, 33.5567222], [-117.6338979, 33.5567357], [-117.6338907, 33.5567476], [-117.6338796, 33.5567616]]]}}, {"type": "Feature", "properties": {"name": "(unnamed)", "leisure": "pitch", "osmType": "way", "osmId": 981036706, "provenanceGrade": "B2", "statementClass": "documented", "source": "OpenStreetMap contributors, ODbL, retrieved 2026-07-29"}, "geometry": {"type": "Polygon", "coordinates": [[[-117.6602659, 33.5240244], [-117.6603633, 33.5238286], [-117.6602522, 33.5237901], [-117.6601547, 33.523986], [-117.6602659, 33.5240244]]]}}, {"type": "Feature", "properties": {"name": "(unnamed)", "leisure": "pitch", "osmType": "way", "osmId": 981036707, "provenanceGrade": "B2", "statementClass": "documented", "source": "OpenStreetMap contributors, ODbL, retrieved 2026-07-29"}, "geometry": {"type": "Polygon", "coordinates": [[[-117.660455, 33.5240848], [-117.6605524, 33.5238889], [-117.6604413, 33.5238505], [-117.6603438, 33.5240463], [-117.660455, 33.5240848]]]}}, {"type": "Feature", "properties": {"name": "(unnamed)", "leisure": "playground", "osmType": "way", "osmId": 1001241302, "provenanceGrade": "B2", "statementClass": "documented", "source": "OpenStreetMap contributors, ODbL, retrieved 2026-07-29"}, "geometry": {"type": "Polygon", "coordinates": [[[-117.6456463, 33.535497], [-117.645651, 33.5355188], [-117.6456416, 33.5355467], [-117.6455981, 33.5355579], [-117.6455545, 33.5355501], [-117.6455216, 33.5355249], [-117.6455109, 33.5354864], [-117.6455223, 33.5354567], [-117.6455592, 33.535426], [-117.6456182, 33.5354137], [-117.6456678, 33.5354187], [-117.6456866, 33.5354551], [-117.645651, 33.5354579], [-117.6456463, 33.535497]]]}}, {"type": "Feature", "properties": {"name": "(unnamed)", "leisure": "pitch", "osmType": "way", "osmId": 1064478369, "provenanceGrade": "B2", "statementClass": "documented", "source": "OpenStreetMap contributors, ODbL, retrieved 2026-07-29"}, "geometry": {"type": "Polygon", "coordinates": [[[-117.6385873, 33.5423063], [-117.638535, 33.5423186], [-117.6378537, 33.5419542], [-117.6380616, 33.541677], [-117.6387817, 33.5420436], [-117.6385873, 33.5423063]]]}}, {"type": "Feature", "properties": {"name": "(unnamed)", "leisure": "park", "osmType": "way", "osmId": 1184568455, "provenanceGrade": "B2", "statementClass": "documented", "source": "OpenStreetMap contributors, ODbL, retrieved 2026-07-29"}, "geometry": {"type": "Polygon", "coordinates": [[[-117.6373192, 33.5646321], [-117.6371114, 33.5645864], [-117.6370542, 33.5646516], [-117.6369783, 33.5647012], [-117.6369141, 33.5647032], [-117.6366355, 33.5645875], [-117.6365957, 33.56455], [-117.636575, 33.5644974], [-117.6366061, 33.5644012], [-117.6362444, 33.5641976], [-117.6362319, 33.5641123], [-117.6358929, 33.5639573], [-117.6356726, 33.5640713], [-117.6357706, 33.5642068], [-117.6358784, 33.5643167], [-117.6359393, 33.5643794], [-117.6357923, 33.5644905], [-117.6358496, 33.5645617], [-117.6361631, 33.5644649], [-117.6363331, 33.5645453], [-117.6365199, 33.5646624], [-117.6368969, 33.5650297], [-117.6369006, 33.5650776], [-117.6366351, 33.5653277], [-117.6367699, 33.5654722], [-117.6370297, 33.5652976], [-117.6369387, 33.5650556], [-117.6369554, 33.5650083], [-117.6370052, 33.5649833], [-117.637171, 33.5649541], [-117.6377945, 33.564927], [-117.6377665, 33.5647733], [-117.6375446, 33.5647926], [-117.6374276, 33.5647841], [-117.6373435, 33.564751], [-117.6373227, 33.5646934], [-117.6373192, 33.5646321]]]}}, {"type": "Feature", "properties": {"name": "(unnamed)", "leisure": "pitch", "osmType": "way", "osmId": 1234411738, "provenanceGrade": "B2", "statementClass": "documented", "source": "OpenStreetMap contributors, ODbL, retrieved 2026-07-29"}, "geometry": {"type": "Polygon", "coordinates": [[[-117.6377232, 33.5505446], [-117.637704, 33.5503311], [-117.6378199, 33.5503239], [-117.6378391, 33.5505374], [-117.6377232, 33.5505446]]]}}, {"type": "Feature", "properties": {"name": "(unnamed)", "leisure": "pitch", "osmType": "way", "osmId": 1234411739, "provenanceGrade": "B2", "statementClass": "documented", "source": "OpenStreetMap contributors, ODbL, retrieved 2026-07-29"}, "geometry": {"type": "Polygon", "coordinates": [[[-117.6379221, 33.5505315], [-117.6379029, 33.550318], [-117.6380188, 33.5503108], [-117.638038, 33.5505243], [-117.6379221, 33.5505315]]]}}, {"type": "Feature", "properties": {"name": "(unnamed)", "leisure": "pitch", "osmType": "way", "osmId": 1234411740, "provenanceGrade": "B2", "statementClass": "documented", "source": "OpenStreetMap contributors, ODbL, retrieved 2026-07-29"}, "geometry": {"type": "Polygon", "coordinates": [[[-117.6379423, 33.5504802], [-117.6379309, 33.5503658], [-117.6379958, 33.5503613], [-117.6380072, 33.5504757], [-117.6379423, 33.5504802]]]}}, {"type": "Feature", "properties": {"name": "(unnamed)", "leisure": "pitch", "osmType": "way", "osmId": 1234411741, "provenanceGrade": "B2", "statementClass": "documented", "source": "OpenStreetMap contributors, ODbL, retrieved 2026-07-29"}, "geometry": {"type": "Polygon", "coordinates": [[[-117.6377468, 33.5504927], [-117.6377354, 33.5503783], [-117.6378003, 33.5503738], [-117.6378117, 33.5504882], [-117.6377468, 33.5504927]]]}}, {"type": "Feature", "properties": {"name": "(unnamed)", "leisure": "pitch", "osmType": "way", "osmId": 1234411742, "provenanceGrade": "B2", "statementClass": "documented", "source": "OpenStreetMap contributors, ODbL, retrieved 2026-07-29"}, "geometry": {"type": "Polygon", "coordinates": [[[-117.6377272, 33.5508059], [-117.6377145, 33.5506721], [-117.6380078, 33.5506527], [-117.6380205, 33.5507864], [-117.6377272, 33.5508059]]]}}, {"type": "Feature", "properties": {"name": "(unnamed)", "leisure": "playground", "osmType": "way", "osmId": 1234411743, "provenanceGrade": "B2", "statementClass": "documented", "source": "OpenStreetMap contributors, ODbL, retrieved 2026-07-29"}, "geometry": {"type": "Polygon", "coordinates": [[[-117.6378151, 33.5515978], [-117.6378066, 33.5515156], [-117.6379488, 33.5515054], [-117.6379574, 33.5515875], [-117.6378151, 33.5515978]]]}}, {"type": "Feature", "properties": {"name": "(unnamed)", "leisure": "pitch", "osmType": "way", "osmId": 1349225322, "provenanceGrade": "B2", "statementClass": "documented", "source": "OpenStreetMap contributors, ODbL, retrieved 2026-07-29"}, "geometry": {"type": "Polygon", "coordinates": [[[-117.6678725, 33.5321936], [-117.6678671, 33.5322585], [-117.6678041, 33.5324127], [-117.6677638, 33.5324541], [-117.6677088, 33.5324854], [-117.6676136, 33.5324966], [-117.6671483, 33.5323546], [-117.6671147, 33.5323188], [-117.6671094, 33.5322775], [-117.6672153, 33.531989], [-117.6678725, 33.5321936]]]}}, {"type": "Feature", "properties": {"name": "(unnamed)", "leisure": "pitch", "osmType": "way", "osmId": 1412292026, "provenanceGrade": "B2", "statementClass": "documented", "source": "OpenStreetMap contributors, ODbL, retrieved 2026-07-29"}, "geometry": {"type": "Polygon", "coordinates": [[[-117.6566352, 33.5727587], [-117.6565196, 33.5727722], [-117.6564841, 33.5725612], [-117.6565997, 33.5725477], [-117.6566352, 33.5727587]]]}}, {"type": "Feature", "properties": {"name": "(unnamed)", "leisure": "pitch", "osmType": "way", "osmId": 1412292027, "provenanceGrade": "B2", "statementClass": "documented", "source": "OpenStreetMap contributors, ODbL, retrieved 2026-07-29"}, "geometry": {"type": "Polygon", "coordinates": [[[-117.6564655, 33.5727785], [-117.6563499, 33.572792], [-117.6563144, 33.572581], [-117.65643, 33.5725675], [-117.6564655, 33.5727785]]]}}, {"type": "Feature", "properties": {"name": "(unnamed)", "leisure": "pitch", "osmType": "way", "osmId": 1412292028, "provenanceGrade": "B2", "statementClass": "documented", "source": "OpenStreetMap contributors, ODbL, retrieved 2026-07-29"}, "geometry": {"type": "Polygon", "coordinates": [[[-117.6562973, 33.5727985], [-117.6561817, 33.572812], [-117.6561462, 33.572601], [-117.6562618, 33.5725875], [-117.6562973, 33.5727985]]]}}, {"type": "Feature", "properties": {"name": "(unnamed)", "leisure": "pitch", "osmType": "way", "osmId": 1412292029, "provenanceGrade": "B2", "statementClass": "documented", "source": "OpenStreetMap contributors, ODbL, retrieved 2026-07-29"}, "geometry": {"type": "Polygon", "coordinates": [[[-117.6561277, 33.5728198], [-117.6560121, 33.5728333], [-117.6559766, 33.5726223], [-117.6560922, 33.5726088], [-117.6561277, 33.5728198]]]}}, {"type": "Feature", "properties": {"name": "(unnamed)", "leisure": "pitch", "osmType": "way", "osmId": 1412292030, "provenanceGrade": "B2", "statementClass": "documented", "source": "OpenStreetMap contributors, ODbL, retrieved 2026-07-29"}, "geometry": {"type": "Polygon", "coordinates": [[[-117.656023, 33.57247], [-117.6559074, 33.5724835], [-117.6558719, 33.5722725], [-117.6559875, 33.572259], [-117.656023, 33.57247]]]}}, {"type": "Feature", "properties": {"name": "(unnamed)", "leisure": "pitch", "osmType": "way", "osmId": 1412292031, "provenanceGrade": "B2", "statementClass": "documented", "source": "OpenStreetMap contributors, ODbL, retrieved 2026-07-29"}, "geometry": {"type": "Polygon", "coordinates": [[[-117.6562265, 33.5724772], [-117.6561634, 33.5724851], [-117.6561419, 33.5723666], [-117.656205, 33.5723587], [-117.6562265, 33.5724772]]]}}, {"type": "Feature", "properties": {"name": "(unnamed)", "leisure": "pitch", "osmType": "way", "osmId": 1412292032, "provenanceGrade": "B2", "statementClass": "documented", "source": "OpenStreetMap contributors, ODbL, retrieved 2026-07-29"}, "geometry": {"type": "Polygon", "coordinates": [[[-117.6561386, 33.5724869], [-117.6560755, 33.5724948], [-117.656054, 33.5723763], [-117.6561171, 33.5723684], [-117.6561386, 33.5724869]]]}}, {"type": "Feature", "properties": {"name": "(unnamed)", "leisure": "pitch", "osmType": "way", "osmId": 1412292033, "provenanceGrade": "B2", "statementClass": "documented", "source": "OpenStreetMap contributors, ODbL, retrieved 2026-07-29"}, "geometry": {"type": "Polygon", "coordinates": [[[-117.6561131, 33.5723347], [-117.65605, 33.5723426], [-117.6560285, 33.5722241], [-117.6560916, 33.5722162], [-117.6561131, 33.5723347]]]}}, {"type": "Feature", "properties": {"name": "(unnamed)", "leisure": "pitch", "osmType": "way", "osmId": 1412292034, "provenanceGrade": "B2", "statementClass": "documented", "source": "OpenStreetMap contributors, ODbL, retrieved 2026-07-29"}, "geometry": {"type": "Polygon", "coordinates": [[[-117.6562007, 33.5723237], [-117.6561376, 33.5723316], [-117.6561161, 33.5722131], [-117.6561792, 33.5722052], [-117.6562007, 33.5723237]]]}}, {"type": "Feature", "properties": {"name": "(unnamed)", "leisure": "pitch", "osmType": "way", "osmId": 1420186309, "provenanceGrade": "B2", "statementClass": "documented", "source": "OpenStreetMap contributors, ODbL, retrieved 2026-07-29"}, "geometry": {"type": "Polygon", "coordinates": [[[-117.6594686, 33.5714849], [-117.65954, 33.5712778], [-117.6594288, 33.5712511], [-117.6593573, 33.5714583], [-117.6594686, 33.5714849]]]}}, {"type": "Feature", "properties": {"name": "(unnamed)", "leisure": "pitch", "osmType": "way", "osmId": 1420186310, "provenanceGrade": "B2", "statementClass": "documented", "source": "OpenStreetMap contributors, ODbL, retrieved 2026-07-29"}, "geometry": {"type": "Polygon", "coordinates": [[[-117.6593237, 33.5714489], [-117.6593951, 33.5712418], [-117.6592839, 33.5712151], [-117.6592124, 33.5714223], [-117.6593237, 33.5714489]]]}}, {"type": "Feature", "properties": {"name": "(unnamed)", "leisure": "pitch", "osmType": "way", "osmId": 1471809596, "provenanceGrade": "B2", "statementClass": "documented", "source": "OpenStreetMap contributors, ODbL, retrieved 2026-07-29"}, "geometry": {"type": "Polygon", "coordinates": [[[-117.6673296, 33.5497919], [-117.667314, 33.5487848], [-117.6667658, 33.5487907], [-117.6667814, 33.5497978], [-117.6673296, 33.5497919]]]}}, {"type": "Feature", "properties": {"name": "(unnamed)", "leisure": "pitch", "osmType": "way", "osmId": 1471809597, "provenanceGrade": "B2", "statementClass": "documented", "source": "OpenStreetMap contributors, ODbL, retrieved 2026-07-29"}, "geometry": {"type": "Polygon", "coordinates": [[[-117.6679377, 33.5497814], [-117.6679222, 33.5487744], [-117.6673739, 33.5487803], [-117.6673896, 33.5497873], [-117.6679377, 33.5497814]]]}}, {"type": "Feature", "properties": {"name": "(unnamed)", "leisure": "pitch", "osmType": "way", "osmId": 1471809598, "provenanceGrade": "B2", "statementClass": "documented", "source": "OpenStreetMap contributors, ODbL, retrieved 2026-07-29"}, "geometry": {"type": "Polygon", "coordinates": [[[-117.6667473, 33.5487143], [-117.6667383, 33.5480953], [-117.6679237, 33.5480832], [-117.6679327, 33.5487023], [-117.6667473, 33.5487143]]]}}, {"type": "Feature", "properties": {"name": "(unnamed)", "leisure": "pitch", "osmType": "way", "osmId": 1471809605, "provenanceGrade": "B2", "statementClass": "documented", "source": "OpenStreetMap contributors, ODbL, retrieved 2026-07-29"}, "geometry": {"type": "Polygon", "coordinates": [[[-117.6660228, 33.5495195], [-117.6654565, 33.5495264], [-117.6654386, 33.5485073], [-117.6660047, 33.5485004], [-117.6660228, 33.5495195]]]}}, {"type": "Feature", "properties": {"name": "(unnamed)", "leisure": "pitch", "osmType": "way", "osmId": 1471809606, "provenanceGrade": "B2", "statementClass": "documented", "source": "OpenStreetMap contributors, ODbL, retrieved 2026-07-29"}, "geometry": {"type": "Polygon", "coordinates": [[[-117.6638587, 33.5504571], [-117.6638599, 33.5501555], [-117.6638216, 33.5501272], [-117.6636596, 33.5501291], [-117.663624, 33.5501568], [-117.6636282, 33.5504562], [-117.6636656, 33.5504802], [-117.6638329, 33.5504797], [-117.6638587, 33.5504571]]]}}, {"type": "Feature", "properties": {"name": "(unnamed)", "leisure": "pitch", "osmType": "way", "osmId": 1471809607, "provenanceGrade": "B2", "statementClass": "documented", "source": "OpenStreetMap contributors, ODbL, retrieved 2026-07-29"}, "geometry": {"type": "Polygon", "coordinates": [[[-117.6634691, 33.5504612], [-117.6634662, 33.5501827], [-117.6634311, 33.550153], [-117.6633015, 33.5501537], [-117.6632722, 33.5501812], [-117.6632753, 33.5504609], [-117.6633127, 33.5504848], [-117.6634349, 33.5504842], [-117.6634691, 33.5504612]]]}}, {"type": "Feature", "properties": {"name": "(unnamed)", "leisure": "pitch", "osmType": "way", "osmId": 1471809608, "provenanceGrade": "B2", "statementClass": "documented", "source": "OpenStreetMap contributors, ODbL, retrieved 2026-07-29"}, "geometry": {"type": "Polygon", "coordinates": [[[-117.6632371, 33.550463], [-117.6632342, 33.5501845], [-117.6631991, 33.5501547], [-117.6630696, 33.5501554], [-117.6630403, 33.5501829], [-117.6630434, 33.5504626], [-117.6630807, 33.5504865], [-117.663203, 33.5504859], [-117.6632371, 33.550463]]]}}, {"type": "Feature", "properties": {"name": "(unnamed)", "leisure": "pitch", "osmType": "way", "osmId": 1471809609, "provenanceGrade": "B2", "statementClass": "documented", "source": "OpenStreetMap contributors, ODbL, retrieved 2026-07-29"}, "geometry": {"type": "Polygon", "coordinates": [[[-117.6630406, 33.5504656], [-117.6630377, 33.5501871], [-117.6630026, 33.5501573], [-117.662873, 33.5501581], [-117.6628437, 33.5501856], [-117.6628469, 33.5504652], [-117.6628842, 33.5504892], [-117.6630065, 33.5504886], [-117.6630406, 33.5504656]]]}}, {"type": "Feature", "properties": {"name": "(unnamed)", "leisure": "pitch", "osmType": "way", "osmId": 1471809610, "provenanceGrade": "B2", "statementClass": "documented", "source": "OpenStreetMap contributors, ODbL, retrieved 2026-07-29"}, "geometry": {"type": "Polygon", "coordinates": [[[-117.6628097, 33.5504693], [-117.6628068, 33.5501907], [-117.6627717, 33.550161], [-117.6626422, 33.5501617], [-117.6626129, 33.5501892], [-117.662616, 33.5504689], [-117.6626533, 33.5504928], [-117.6627756, 33.5504922], [-117.6628097, 33.5504693]]]}}, {"type": "Feature", "properties": {"name": "(unnamed)", "leisure": "pitch", "osmType": "way", "osmId": 1471809611, "provenanceGrade": "B2", "statementClass": "documented", "source": "OpenStreetMap contributors, ODbL, retrieved 2026-07-29"}, "geometry": {"type": "Polygon", "coordinates": [[[-117.6626136, 33.5504704], [-117.6626106, 33.5501919], [-117.6625755, 33.5501622], [-117.662446, 33.5501629], [-117.6624167, 33.5501904], [-117.6624198, 33.5504701], [-117.6624571, 33.550494], [-117.6625794, 33.5504934], [-117.6626136, 33.5504704]]]}}, {"type": "Feature", "properties": {"name": "(unnamed)", "leisure": "pitch", "osmType": "way", "osmId": 1471809612, "provenanceGrade": "B2", "statementClass": "documented", "source": "OpenStreetMap contributors, ODbL, retrieved 2026-07-29"}, "geometry": {"type": "Polygon", "coordinates": [[[-117.6628025, 33.5501079], [-117.6628001, 33.5497773], [-117.6626029, 33.5497783], [-117.6626053, 33.5501089], [-117.6628025, 33.5501079]]]}}, {"type": "Feature", "properties": {"name": "(unnamed)", "leisure": "pitch", "osmType": "way", "osmId": 1471809613, "provenanceGrade": "B2", "statementClass": "documented", "source": "OpenStreetMap contributors, ODbL, retrieved 2026-07-29"}, "geometry": {"type": "Polygon", "coordinates": [[[-117.6626022, 33.5501096], [-117.6625998, 33.549779], [-117.6624026, 33.54978], [-117.6624051, 33.5501106], [-117.6626022, 33.5501096]]]}}, {"type": "Feature", "properties": {"name": "Oso Grande Playground", "leisure": "playground", "osmType": "way", "osmId": 1503413947, "provenanceGrade": "B2", "statementClass": "documented", "source": "OpenStreetMap contributors, ODbL, retrieved 2026-07-29"}, "geometry": {"type": "Polygon", "coordinates": [[[-117.6392461, 33.5418528], [-117.6392072, 33.5417999], [-117.6391116, 33.5417499], [-117.639, 33.5416956], [-117.6389095, 33.5417358], [-117.6389145, 33.5418641], [-117.6388384, 33.5419162], [-117.638791, 33.5419881], [-117.6388376, 33.542041], [-117.6389636, 33.5420474], [-117.6390482, 33.5420495], [-117.639093, 33.5420142], [-117.6391362, 33.5419839], [-117.639181, 33.5419607], [-117.6392343, 33.5419176], [-117.6392461, 33.5418528]]]}}, {"type": "Feature", "properties": {"name": "(unnamed)", "leisure": "pitch", "osmType": "way", "osmId": 1503413948, "provenanceGrade": "B2", "statementClass": "documented", "source": "OpenStreetMap contributors, ODbL, retrieved 2026-07-29"}, "geometry": {"type": "Polygon", "coordinates": [[[-117.6395886, 33.5421238], [-117.6394464, 33.5420882], [-117.6389381, 33.5423062], [-117.6389785, 33.5423937], [-117.6390262, 33.5424653], [-117.6390864, 33.5425222], [-117.6391547, 33.5425712], [-117.6392252, 33.5426085], [-117.6393148, 33.5426403], [-117.6394095, 33.5426562], [-117.6394991, 33.5426611], [-117.6395688, 33.5426556], [-117.6396518, 33.5426403], [-117.6397355, 33.5426122], [-117.6398391, 33.5425785], [-117.6395886, 33.5421238]]]}}, {"type": "Feature", "properties": {"name": "(unnamed)", "leisure": "playground", "osmType": "way", "osmId": 1505291119, "provenanceGrade": "B2", "statementClass": "documented", "source": "OpenStreetMap contributors, ODbL, retrieved 2026-07-29"}, "geometry": {"type": "Polygon", "coordinates": [[[-117.6348254, 33.5486161], [-117.6347551, 33.5486855], [-117.6348387, 33.5487443], [-117.634909, 33.5486749], [-117.6348254, 33.5486161]]]}}, {"type": "Feature", "properties": {"name": "(unnamed)", "leisure": "pitch", "osmType": "way", "osmId": 1517851302, "provenanceGrade": "B2", "statementClass": "documented", "source": "OpenStreetMap contributors, ODbL, retrieved 2026-07-29"}, "geometry": {"type": "Polygon", "coordinates": [[[-117.6381511, 33.5516469], [-117.6380873, 33.5516501], [-117.6380785, 33.5515294], [-117.6381422, 33.5515261], [-117.6381511, 33.5516469]]]}}, {"type": "Feature", "properties": {"name": "(unnamed)", "leisure": "pitch", "osmType": "way", "osmId": 1517851303, "provenanceGrade": "B2", "statementClass": "documented", "source": "OpenStreetMap contributors, ODbL, retrieved 2026-07-29"}, "geometry": {"type": "Polygon", "coordinates": [[[-117.6382353, 33.5516427], [-117.6381715, 33.5516459], [-117.6381627, 33.5515252], [-117.6382264, 33.5515219], [-117.6382353, 33.5516427]]]}}, {"type": "Feature", "properties": {"name": "(unnamed)", "leisure": "pitch", "osmType": "way", "osmId": 1517851304, "provenanceGrade": "B2", "statementClass": "documented", "source": "OpenStreetMap contributors, ODbL, retrieved 2026-07-29"}, "geometry": {"type": "Polygon", "coordinates": [[[-117.6382247, 33.5514893], [-117.6381609, 33.5514924], [-117.6381521, 33.5513718], [-117.6382158, 33.5513685], [-117.6382247, 33.5514893]]]}}, {"type": "Feature", "properties": {"name": "(unnamed)", "leisure": "pitch", "osmType": "way", "osmId": 1517851305, "provenanceGrade": "B2", "statementClass": "documented", "source": "OpenStreetMap contributors, ODbL, retrieved 2026-07-29"}, "geometry": {"type": "Polygon", "coordinates": [[[-117.6381405, 33.5514934], [-117.6380767, 33.5514966], [-117.6380678, 33.551376], [-117.6381315, 33.5513727], [-117.6381405, 33.5514934]]]}}]}